{"type":"FeatureCollection","name":"ev_charging_stations_germany_sample","features":[{"type":"Feature","properties":{"id":"ev-de-00001","name":"Berlin Charging Asset 0001","operator":"EnBW","region":"Berlin","state":"Berlin","address":"Synthetic site 1, Berlin","connectors":4,"power_kw":22,"status":"available","latitude":52.3445,"longitude":13.07407},"geometry":{"type":"Point","coordinates":[13.07407,52.3445]}},{"type":"Feature","properties":{"id":"ev-de-00090","name":"Berlin Charging Asset 0090","operator":"Aral pulse","region":"Berlin","state":"Berlin","address":"Synthetic site 90, Berlin","connectors":7,"power_kw":50,"status":"maintenance","latitude":52.3599,"longitude":13.58913},"geometry":{"type":"Point","coordinates":[13.58913,52.3599]}},{"type":"Feature","properties":{"id":"ev-de-00180","name":"Berlin Charging Asset 0180","operator":"UrbanVolt","region":"Berlin","state":"Berlin","address":"Synthetic site 180, Berlin","connectors":5,"power_kw":300,"status":"maintenance","latitude":52.3962,"longitude":13.43613},"geometry":{"type":"Point","coordinates":[13.43613,52.3962]}},{"type":"Feature","properties":{"id":"ev-de-00270","name":"Berlin Charging Asset 0270","operator":"Aral pulse","region":"Berlin","state":"Berlin","address":"Synthetic site 270, Berlin","connectors":3,"power_kw":75,"status":"maintenance","latitude":52.4325,"longitude":13.28313},"geometry":{"type":"Point","coordinates":[13.28313,52.4325]}},{"type":"Feature","properties":{"id":"ev-de-00360","name":"Berlin Charging Asset 0360","operator":"UrbanVolt","region":"Berlin","state":"Berlin","address":"Synthetic site 360, Berlin","connectors":8,"power_kw":11,"status":"maintenance","latitude":52.4435,"longitude":13.10353},"geometry":{"type":"Point","coordinates":[13.10353,52.4435]}},{"type":"Feature","properties":{"id":"ev-de-00450","name":"Berlin Charging Asset 0450","operator":"Aral pulse","region":"Berlin","state":"Berlin","address":"Synthetic site 450, Berlin","connectors":6,"power_kw":120,"status":"maintenance","latitude":52.4666,"longitude":13.63053},"geometry":{"type":"Point","coordinates":[13.63053,52.4666]}},{"type":"Feature","properties":{"id":"ev-de-00540","name":"Berlin Charging Asset 0540","operator":"UrbanVolt","region":"Berlin","state":"Berlin","address":"Synthetic site 540, Berlin","connectors":4,"power_kw":22,"status":"maintenance","latitude":52.4776,"longitude":13.47753},"geometry":{"type":"Point","coordinates":[13.47753,52.4776]}},{"type":"Feature","properties":{"id":"ev-de-00630","name":"Berlin Charging Asset 0630","operator":"Aral pulse","region":"Berlin","state":"Berlin","address":"Synthetic site 630, Berlin","connectors":2,"power_kw":150,"status":"maintenance","latitude":52.5139,"longitude":13.32453},"geometry":{"type":"Point","coordinates":[13.32453,52.5139]}},{"type":"Feature","properties":{"id":"ev-de-00720","name":"Berlin Charging Asset 0720","operator":"UrbanVolt","region":"Berlin","state":"Berlin","address":"Synthetic site 720, Berlin","connectors":7,"power_kw":50,"status":"maintenance","latitude":52.5502,"longitude":13.14493},"geometry":{"type":"Point","coordinates":[13.14493,52.5502]}},{"type":"Feature","properties":{"id":"ev-de-00810","name":"Berlin Charging Asset 0810","operator":"Aral pulse","region":"Berlin","state":"Berlin","address":"Synthetic site 810, Berlin","connectors":5,"power_kw":300,"status":"maintenance","latitude":52.548,"longitude":13.67193},"geometry":{"type":"Point","coordinates":[13.67193,52.548]}},{"type":"Feature","properties":{"id":"ev-de-00899","name":"Berlin Charging Asset 0899","operator":"Allego","region":"Berlin","state":"Berlin","address":"Synthetic site 899, Berlin","connectors":8,"power_kw":11,"status":"available","latitude":52.5766,"longitude":13.507},"geometry":{"type":"Point","coordinates":[13.507,52.5766]}},{"type":"Feature","properties":{"id":"ev-de-00989","name":"Berlin Charging Asset 0989","operator":"EnBW","region":"Berlin","state":"Berlin","address":"Synthetic site 989, Berlin","connectors":6,"power_kw":120,"status":"available","latitude":52.6129,"longitude":13.3274},"geometry":{"type":"Point","coordinates":[13.3274,52.6129]}},{"type":"Feature","properties":{"id":"ev-de-01079","name":"Berlin Charging Asset 1079","operator":"Allego","region":"Berlin","state":"Berlin","address":"Synthetic site 1079, Berlin","connectors":4,"power_kw":22,"status":"available","latitude":52.6239,"longitude":13.1744},"geometry":{"type":"Point","coordinates":[13.1744,52.6239]}},{"type":"Feature","properties":{"id":"ev-de-01169","name":"Berlin Charging Asset 1169","operator":"EnBW","region":"Berlin","state":"Berlin","address":"Synthetic site 1169, Berlin","connectors":2,"power_kw":150,"status":"available","latitude":52.647,"longitude":13.7014},"geometry":{"type":"Point","coordinates":[13.7014,52.647]}},{"type":"Feature","properties":{"id":"ev-de-01259","name":"Hamburg Charging Asset 0009","operator":"Aral pulse","region":"Hamburg","state":"Hamburg","address":"Synthetic site 1259, Hamburg","connectors":3,"power_kw":22,"status":"available","latitude":53.39538,"longitude":9.81436},"geometry":{"type":"Point","coordinates":[9.81436,53.39538]}},{"type":"Feature","properties":{"id":"ev-de-01349","name":"Hamburg Charging Asset 0099","operator":"UrbanVolt","region":"Hamburg","state":"Hamburg","address":"Synthetic site 1349, Hamburg","connectors":8,"power_kw":150,"status":"available","latitude":53.43121,"longitude":9.74261},"geometry":{"type":"Point","coordinates":[9.74261,53.43121]}},{"type":"Feature","properties":{"id":"ev-de-01439","name":"Hamburg Charging Asset 0189","operator":"Aral pulse","region":"Hamburg","state":"Hamburg","address":"Synthetic site 1439, Hamburg","connectors":6,"power_kw":50,"status":"available","latitude":53.42877,"longitude":10.27426},"geometry":{"type":"Point","coordinates":[10.27426,53.42877]}},{"type":"Feature","properties":{"id":"ev-de-01529","name":"Hamburg Charging Asset 0279","operator":"UrbanVolt","region":"Hamburg","state":"Hamburg","address":"Synthetic site 1529, Hamburg","connectors":4,"power_kw":300,"status":"available","latitude":53.4646,"longitude":10.20251},"geometry":{"type":"Point","coordinates":[10.20251,53.4646]}},{"type":"Feature","properties":{"id":"ev-de-01619","name":"Hamburg Charging Asset 0369","operator":"Aral pulse","region":"Hamburg","state":"Hamburg","address":"Synthetic site 1619, Hamburg","connectors":2,"power_kw":75,"status":"available","latitude":53.47512,"longitude":10.13076},"geometry":{"type":"Point","coordinates":[10.13076,53.47512]}},{"type":"Feature","properties":{"id":"ev-de-01708","name":"Hamburg Charging Asset 0458","operator":"Allego","region":"Hamburg","state":"Hamburg","address":"Synthetic site 1708, Hamburg","connectors":5,"power_kw":120,"status":"available","latitude":53.50325,"longitude":10.04729},"geometry":{"type":"Point","coordinates":[10.04729,53.50325]}},{"type":"Feature","properties":{"id":"ev-de-01798","name":"Hamburg Charging Asset 0548","operator":"EnBW","region":"Hamburg","state":"Hamburg","address":"Synthetic site 1798, Hamburg","connectors":3,"power_kw":22,"status":"available","latitude":53.53907,"longitude":9.94894},"geometry":{"type":"Point","coordinates":[9.94894,53.53907]}},{"type":"Feature","properties":{"id":"ev-de-01888","name":"Hamburg Charging Asset 0638","operator":"Allego","region":"Hamburg","state":"Hamburg","address":"Synthetic site 1888, Hamburg","connectors":8,"power_kw":150,"status":"available","latitude":53.5749,"longitude":9.87719},"geometry":{"type":"Point","coordinates":[9.87719,53.5749]}},{"type":"Feature","properties":{"id":"ev-de-01978","name":"Hamburg Charging Asset 0728","operator":"EnBW","region":"Hamburg","state":"Hamburg","address":"Synthetic site 1978, Hamburg","connectors":6,"power_kw":50,"status":"available","latitude":53.58543,"longitude":9.80544},"geometry":{"type":"Point","coordinates":[9.80544,53.58543]}},{"type":"Feature","properties":{"id":"ev-de-02068","name":"Hamburg Charging Asset 0818","operator":"Allego","region":"Hamburg","state":"Hamburg","address":"Synthetic site 2068, Hamburg","connectors":4,"power_kw":300,"status":"available","latitude":53.62125,"longitude":9.70709},"geometry":{"type":"Point","coordinates":[9.70709,53.62125]}},{"type":"Feature","properties":{"id":"ev-de-02158","name":"Hamburg Charging Asset 0908","operator":"EnBW","region":"Hamburg","state":"Hamburg","address":"Synthetic site 2158, Hamburg","connectors":2,"power_kw":75,"status":"available","latitude":53.61881,"longitude":10.26534},"geometry":{"type":"Point","coordinates":[10.26534,53.61881]}},{"type":"Feature","properties":{"id":"ev-de-02248","name":"Hamburg Charging Asset 0998","operator":"Allego","region":"Hamburg","state":"Hamburg","address":"Synthetic site 2248, Hamburg","connectors":7,"power_kw":11,"status":"available","latitude":53.65464,"longitude":10.19359},"geometry":{"type":"Point","coordinates":[10.19359,53.65464]}},{"type":"Feature","properties":{"id":"ev-de-02338","name":"Hamburg Charging Asset 1088","operator":"EnBW","region":"Hamburg","state":"Hamburg","address":"Synthetic site 2338, Hamburg","connectors":5,"power_kw":120,"status":"available","latitude":53.69047,"longitude":10.12184},"geometry":{"type":"Point","coordinates":[10.12184,53.69047]}},{"type":"Feature","properties":{"id":"ev-de-02428","name":"Hamburg Charging Asset 1178","operator":"Allego","region":"Hamburg","state":"Hamburg","address":"Synthetic site 2428, Hamburg","connectors":3,"power_kw":22,"status":"available","latitude":53.70099,"longitude":10.02349},"geometry":{"type":"Point","coordinates":[10.02349,53.70099]}},{"type":"Feature","properties":{"id":"ev-de-02517","name":"Munich Region Charging Asset 0017","operator":"Allego","region":"Munich Region","state":"Bavaria","address":"Synthetic site 2517, Munich Region","connectors":2,"power_kw":22,"status":"occupied","latitude":47.84115,"longitude":11.40827},"geometry":{"type":"Point","coordinates":[11.40827,47.84115]}},{"type":"Feature","properties":{"id":"ev-de-02607","name":"Munich Region Charging Asset 0107","operator":"EnBW","region":"Munich Region","state":"Bavaria","address":"Synthetic site 2607, Munich Region","connectors":7,"power_kw":150,"status":"occupied","latitude":47.87075,"longitude":11.41527},"geometry":{"type":"Point","coordinates":[11.41527,47.87075]}},{"type":"Feature","properties":{"id":"ev-de-02697","name":"Munich Region Charging Asset 0197","operator":"Allego","region":"Munich Region","state":"Bavaria","address":"Synthetic site 2697, Munich Region","connectors":5,"power_kw":50,"status":"occupied","latitude":47.92565,"longitude":11.42227},"geometry":{"type":"Point","coordinates":[11.42227,47.92565]}},{"type":"Feature","properties":{"id":"ev-de-02787","name":"Munich Region Charging Asset 0287","operator":"EnBW","region":"Munich Region","state":"Bavaria","address":"Synthetic site 2787, Munich Region","connectors":3,"power_kw":300,"status":"occupied","latitude":47.95525,"longitude":11.42927},"geometry":{"type":"Point","coordinates":[11.42927,47.95525]}},{"type":"Feature","properties":{"id":"ev-de-02877","name":"Munich Region Charging Asset 0377","operator":"Allego","region":"Munich Region","state":"Bavaria","address":"Synthetic site 2877, Munich Region","connectors":8,"power_kw":75,"status":"occupied","latitude":48.01015,"longitude":11.40967},"geometry":{"type":"Point","coordinates":[11.40967,48.01015]}},{"type":"Feature","properties":{"id":"ev-de-02967","name":"Munich Region Charging Asset 0467","operator":"EnBW","region":"Munich Region","state":"Bavaria","address":"Synthetic site 2967, Munich Region","connectors":6,"power_kw":11,"status":"occupied","latitude":48.06505,"longitude":11.41667},"geometry":{"type":"Point","coordinates":[11.41667,48.06505]}},{"type":"Feature","properties":{"id":"ev-de-03057","name":"Munich Region Charging Asset 0557","operator":"Allego","region":"Munich Region","state":"Bavaria","address":"Synthetic site 3057, Munich Region","connectors":4,"power_kw":120,"status":"occupied","latitude":48.09465,"longitude":11.42367},"geometry":{"type":"Point","coordinates":[11.42367,48.09465]}},{"type":"Feature","properties":{"id":"ev-de-03147","name":"Munich Region Charging Asset 0647","operator":"EnBW","region":"Munich Region","state":"Bavaria","address":"Synthetic site 3147, Munich Region","connectors":2,"power_kw":22,"status":"occupied","latitude":48.14955,"longitude":11.40407},"geometry":{"type":"Point","coordinates":[11.40407,48.14955]}},{"type":"Feature","properties":{"id":"ev-de-03237","name":"Munich Region Charging Asset 0737","operator":"Allego","region":"Munich Region","state":"Bavaria","address":"Synthetic site 3237, Munich Region","connectors":7,"power_kw":150,"status":"occupied","latitude":48.17915,"longitude":11.41107},"geometry":{"type":"Point","coordinates":[11.41107,48.17915]}},{"type":"Feature","properties":{"id":"ev-de-03326","name":"Munich Region Charging Asset 0826","operator":"UrbanVolt","region":"Munich Region","state":"Bavaria","address":"Synthetic site 3326, Munich Region","connectors":3,"power_kw":300,"status":"available","latitude":48.22635,"longitude":11.39724},"geometry":{"type":"Point","coordinates":[11.39724,48.22635]}},{"type":"Feature","properties":{"id":"ev-de-03416","name":"Munich Region Charging Asset 0916","operator":"Aral pulse","region":"Munich Region","state":"Bavaria","address":"Synthetic site 3416, Munich Region","connectors":8,"power_kw":75,"status":"available","latitude":48.28125,"longitude":11.40424},"geometry":{"type":"Point","coordinates":[11.40424,48.28125]}},{"type":"Feature","properties":{"id":"ev-de-03506","name":"Munich Region Charging Asset 1006","operator":"UrbanVolt","region":"Munich Region","state":"Bavaria","address":"Synthetic site 3506, Munich Region","connectors":6,"power_kw":11,"status":"available","latitude":48.33615,"longitude":11.38464},"geometry":{"type":"Point","coordinates":[11.38464,48.33615]}},{"type":"Feature","properties":{"id":"ev-de-03596","name":"Munich Region Charging Asset 1096","operator":"Aral pulse","region":"Munich Region","state":"Bavaria","address":"Synthetic site 3596, Munich Region","connectors":4,"power_kw":120,"status":"available","latitude":48.36575,"longitude":11.39164},"geometry":{"type":"Point","coordinates":[11.39164,48.36575]}},{"type":"Feature","properties":{"id":"ev-de-03686","name":"Munich Region Charging Asset 1186","operator":"UrbanVolt","region":"Munich Region","state":"Bavaria","address":"Synthetic site 3686, Munich Region","connectors":2,"power_kw":22,"status":"available","latitude":48.42065,"longitude":11.39864},"geometry":{"type":"Point","coordinates":[11.39864,48.42065]}},{"type":"Feature","properties":{"id":"ev-de-03776","name":"Cologne-Bonn Region Charging Asset 0026","operator":"EnBW","region":"Cologne-Bonn Region","state":"North Rhine-Westphalia","address":"Synthetic site 3776, Cologne-Bonn Region","connectors":3,"power_kw":120,"status":"available","latitude":50.56364,"longitude":7.07719},"geometry":{"type":"Point","coordinates":[7.07719,50.56364]}},{"type":"Feature","properties":{"id":"ev-de-03866","name":"Cologne-Bonn Region Charging Asset 0116","operator":"Allego","region":"Cologne-Bonn Region","state":"North Rhine-Westphalia","address":"Synthetic site 3866, Cologne-Bonn Region","connectors":8,"power_kw":22,"status":"available","latitude":50.58962,"longitude":7.1251},"geometry":{"type":"Point","coordinates":[7.1251,50.58962]}},{"type":"Feature","properties":{"id":"ev-de-03956","name":"Cologne-Bonn Region Charging Asset 0206","operator":"EnBW","region":"Cologne-Bonn Region","state":"North Rhine-Westphalia","address":"Synthetic site 3956, Cologne-Bonn Region","connectors":6,"power_kw":150,"status":"available","latitude":50.6409,"longitude":7.14641},"geometry":{"type":"Point","coordinates":[7.14641,50.6409]}},{"type":"Feature","properties":{"id":"ev-de-04046","name":"Cologne-Bonn Region Charging Asset 0296","operator":"Allego","region":"Cologne-Bonn Region","state":"North Rhine-Westphalia","address":"Synthetic site 4046, Cologne-Bonn Region","connectors":4,"power_kw":50,"status":"available","latitude":50.69218,"longitude":7.19432},"geometry":{"type":"Point","coordinates":[7.19432,50.69218]}},{"type":"Feature","properties":{"id":"ev-de-04135","name":"Cologne-Bonn Region Charging Asset 0385","operator":"UrbanVolt","region":"Cologne-Bonn Region","state":"North Rhine-Westphalia","address":"Synthetic site 4135, Cologne-Bonn Region","connectors":7,"power_kw":75,"status":"maintenance","latitude":50.73576,"longitude":7.22317},"geometry":{"type":"Point","coordinates":[7.22317,50.73576]}},{"type":"Feature","properties":{"id":"ev-de-04225","name":"Cologne-Bonn Region Charging Asset 0475","operator":"Aral pulse","region":"Cologne-Bonn Region","state":"North Rhine-Westphalia","address":"Synthetic site 4225, Cologne-Bonn Region","connectors":5,"power_kw":11,"status":"maintenance","latitude":50.76174,"longitude":7.24448},"geometry":{"type":"Point","coordinates":[7.24448,50.76174]}},{"type":"Feature","properties":{"id":"ev-de-04315","name":"Cologne-Bonn Region Charging Asset 0565","operator":"UrbanVolt","region":"Cologne-Bonn Region","state":"North Rhine-Westphalia","address":"Synthetic site 4315, Cologne-Bonn Region","connectors":3,"power_kw":120,"status":"maintenance","latitude":50.81302,"longitude":7.29239},"geometry":{"type":"Point","coordinates":[7.29239,50.81302]}},{"type":"Feature","properties":{"id":"ev-de-04405","name":"Cologne-Bonn Region Charging Asset 0655","operator":"Aral pulse","region":"Cologne-Bonn Region","state":"North Rhine-Westphalia","address":"Synthetic site 4405, Cologne-Bonn Region","connectors":8,"power_kw":22,"status":"maintenance","latitude":50.839,"longitude":7.3403},"geometry":{"type":"Point","coordinates":[7.3403,50.839]}},{"type":"Feature","properties":{"id":"ev-de-04495","name":"Cologne-Bonn Region Charging Asset 0745","operator":"UrbanVolt","region":"Cologne-Bonn Region","state":"North Rhine-Westphalia","address":"Synthetic site 4495, Cologne-Bonn Region","connectors":6,"power_kw":150,"status":"maintenance","latitude":50.89028,"longitude":7.38821},"geometry":{"type":"Point","coordinates":[7.38821,50.89028]}},{"type":"Feature","properties":{"id":"ev-de-04585","name":"Cologne-Bonn Region Charging Asset 0835","operator":"Aral pulse","region":"Cologne-Bonn Region","state":"North Rhine-Westphalia","address":"Synthetic site 4585, Cologne-Bonn Region","connectors":4,"power_kw":50,"status":"maintenance","latitude":50.94156,"longitude":7.40952},"geometry":{"type":"Point","coordinates":[7.40952,50.94156]}},{"type":"Feature","properties":{"id":"ev-de-04675","name":"Cologne-Bonn Region Charging Asset 0925","operator":"UrbanVolt","region":"Cologne-Bonn Region","state":"North Rhine-Westphalia","address":"Synthetic site 4675, Cologne-Bonn Region","connectors":2,"power_kw":300,"status":"maintenance","latitude":50.98823,"longitude":6.55743},"geometry":{"type":"Point","coordinates":[6.55743,50.98823]}},{"type":"Feature","properties":{"id":"ev-de-04765","name":"Cologne-Bonn Region Charging Asset 1015","operator":"Aral pulse","region":"Cologne-Bonn Region","state":"North Rhine-Westphalia","address":"Synthetic site 4765, Cologne-Bonn Region","connectors":7,"power_kw":75,"status":"maintenance","latitude":51.03951,"longitude":6.60534},"geometry":{"type":"Point","coordinates":[6.60534,51.03951]}},{"type":"Feature","properties":{"id":"ev-de-04855","name":"Cologne-Bonn Region Charging Asset 1105","operator":"UrbanVolt","region":"Cologne-Bonn Region","state":"North Rhine-Westphalia","address":"Synthetic site 4855, Cologne-Bonn Region","connectors":5,"power_kw":11,"status":"maintenance","latitude":51.06549,"longitude":6.65325},"geometry":{"type":"Point","coordinates":[6.65325,51.06549]}},{"type":"Feature","properties":{"id":"ev-de-04944","name":"Cologne-Bonn Region Charging Asset 1194","operator":"EnBW","region":"Cologne-Bonn Region","state":"North Rhine-Westphalia","address":"Synthetic site 4944, Cologne-Bonn Region","connectors":8,"power_kw":22,"status":"available","latitude":51.10907,"longitude":6.6555},"geometry":{"type":"Point","coordinates":[6.6555,51.10907]}},{"type":"Feature","properties":{"id":"ev-de-05034","name":"Frankfurt Rhine-Main Charging Asset 0034","operator":"Aral pulse","region":"Frankfurt Rhine-Main","state":"Hesse","address":"Synthetic site 5034, Frankfurt Rhine-Main","connectors":2,"power_kw":120,"status":"available","latitude":49.65329,"longitude":8.79114},"geometry":{"type":"Point","coordinates":[8.79114,49.65329]}},{"type":"Feature","properties":{"id":"ev-de-05124","name":"Frankfurt Rhine-Main Charging Asset 0124","operator":"UrbanVolt","region":"Frankfurt Rhine-Main","state":"Hesse","address":"Synthetic site 5124, Frankfurt Rhine-Main","connectors":7,"power_kw":22,"status":"available","latitude":49.72033,"longitude":8.74162},"geometry":{"type":"Point","coordinates":[8.74162,49.72033]}},{"type":"Feature","properties":{"id":"ev-de-05214","name":"Frankfurt Rhine-Main Charging Asset 0214","operator":"Aral pulse","region":"Frankfurt Rhine-Main","state":"Hesse","address":"Synthetic site 5214, Frankfurt Rhine-Main","connectors":5,"power_kw":150,"status":"available","latitude":49.78737,"longitude":8.6921},"geometry":{"type":"Point","coordinates":[8.6921,49.78737]}},{"type":"Feature","properties":{"id":"ev-de-05304","name":"Frankfurt Rhine-Main Charging Asset 0304","operator":"UrbanVolt","region":"Frankfurt Rhine-Main","state":"Hesse","address":"Synthetic site 5304, Frankfurt Rhine-Main","connectors":3,"power_kw":50,"status":"available","latitude":49.82911,"longitude":8.61597},"geometry":{"type":"Point","coordinates":[8.61597,49.82911]}},{"type":"Feature","properties":{"id":"ev-de-05394","name":"Frankfurt Rhine-Main Charging Asset 0394","operator":"Aral pulse","region":"Frankfurt Rhine-Main","state":"Hesse","address":"Synthetic site 5394, Frankfurt Rhine-Main","connectors":8,"power_kw":300,"status":"available","latitude":49.89616,"longitude":8.56645},"geometry":{"type":"Point","coordinates":[8.56645,49.89616]}},{"type":"Feature","properties":{"id":"ev-de-05484","name":"Frankfurt Rhine-Main Charging Asset 0484","operator":"UrbanVolt","region":"Frankfurt Rhine-Main","state":"Hesse","address":"Synthetic site 5484, Frankfurt Rhine-Main","connectors":6,"power_kw":75,"status":"available","latitude":49.9379,"longitude":8.51693},"geometry":{"type":"Point","coordinates":[8.51693,49.9379]}},{"type":"Feature","properties":{"id":"ev-de-05574","name":"Frankfurt Rhine-Main Charging Asset 0574","operator":"Aral pulse","region":"Frankfurt Rhine-Main","state":"Hesse","address":"Synthetic site 5574, Frankfurt Rhine-Main","connectors":4,"power_kw":11,"status":"available","latitude":50.00494,"longitude":8.46741},"geometry":{"type":"Point","coordinates":[8.46741,50.00494]}},{"type":"Feature","properties":{"id":"ev-de-05664","name":"Frankfurt Rhine-Main Charging Asset 0664","operator":"UrbanVolt","region":"Frankfurt Rhine-Main","state":"Hesse","address":"Synthetic site 5664, Frankfurt Rhine-Main","connectors":2,"power_kw":120,"status":"available","latitude":50.07199,"longitude":8.39129},"geometry":{"type":"Point","coordinates":[8.39129,50.07199]}},{"type":"Feature","properties":{"id":"ev-de-05754","name":"Frankfurt Rhine-Main Charging Asset 0754","operator":"Aral pulse","region":"Frankfurt Rhine-Main","state":"Hesse","address":"Synthetic site 5754, Frankfurt Rhine-Main","connectors":7,"power_kw":22,"status":"available","latitude":50.11373,"longitude":8.34177},"geometry":{"type":"Point","coordinates":[8.34177,50.11373]}},{"type":"Feature","properties":{"id":"ev-de-05843","name":"Frankfurt Rhine-Main Charging Asset 0843","operator":"Allego","region":"Frankfurt Rhine-Main","state":"Hesse","address":"Synthetic site 5843, Frankfurt Rhine-Main","connectors":3,"power_kw":50,"status":"available","latitude":50.17307,"longitude":8.26538},"geometry":{"type":"Point","coordinates":[8.26538,50.17307]}},{"type":"Feature","properties":{"id":"ev-de-05933","name":"Frankfurt Rhine-Main Charging Asset 0933","operator":"EnBW","region":"Frankfurt Rhine-Main","state":"Hesse","address":"Synthetic site 5933, Frankfurt Rhine-Main","connectors":8,"power_kw":300,"status":"available","latitude":50.24011,"longitude":8.21586},"geometry":{"type":"Point","coordinates":[8.21586,50.24011]}},{"type":"Feature","properties":{"id":"ev-de-06023","name":"Frankfurt Rhine-Main Charging Asset 1023","operator":"Allego","region":"Frankfurt Rhine-Main","state":"Hesse","address":"Synthetic site 6023, Frankfurt Rhine-Main","connectors":6,"power_kw":75,"status":"available","latitude":50.28186,"longitude":8.13974},"geometry":{"type":"Point","coordinates":[8.13974,50.28186]}},{"type":"Feature","properties":{"id":"ev-de-06113","name":"Frankfurt Rhine-Main Charging Asset 1113","operator":"EnBW","region":"Frankfurt Rhine-Main","state":"Hesse","address":"Synthetic site 6113, Frankfurt Rhine-Main","connectors":4,"power_kw":11,"status":"available","latitude":50.3489,"longitude":8.09022},"geometry":{"type":"Point","coordinates":[8.09022,50.3489]}},{"type":"Feature","properties":{"id":"ev-de-06203","name":"Frankfurt Rhine-Main Charging Asset 1203","operator":"Allego","region":"Frankfurt Rhine-Main","state":"Hesse","address":"Synthetic site 6203, Frankfurt Rhine-Main","connectors":2,"power_kw":120,"status":"available","latitude":50.41594,"longitude":8.0407},"geometry":{"type":"Point","coordinates":[8.0407,50.41594]}},{"type":"Feature","properties":{"id":"ev-de-06293","name":"Stuttgart Region Charging Asset 0043","operator":"UrbanVolt","region":"Stuttgart Region","state":"Baden-Wurttemberg","address":"Synthetic site 6293, Stuttgart Region","connectors":3,"power_kw":11,"status":"available","latitude":48.46804,"longitude":9.62772},"geometry":{"type":"Point","coordinates":[9.62772,48.46804]}},{"type":"Feature","properties":{"id":"ev-de-06383","name":"Stuttgart Region Charging Asset 0133","operator":"Aral pulse","region":"Stuttgart Region","state":"Baden-Wurttemberg","address":"Synthetic site 6383, Stuttgart Region","connectors":8,"power_kw":120,"status":"available","latitude":48.51471,"longitude":8.74903},"geometry":{"type":"Point","coordinates":[8.74903,48.51471]}},{"type":"Feature","properties":{"id":"ev-de-06473","name":"Stuttgart Region Charging Asset 0223","operator":"UrbanVolt","region":"Stuttgart Region","state":"Baden-Wurttemberg","address":"Synthetic site 6473, Stuttgart Region","connectors":6,"power_kw":22,"status":"available","latitude":48.56599,"longitude":8.79694},"geometry":{"type":"Point","coordinates":[8.79694,48.56599]}},{"type":"Feature","properties":{"id":"ev-de-06563","name":"Stuttgart Region Charging Asset 0313","operator":"Aral pulse","region":"Stuttgart Region","state":"Baden-Wurttemberg","address":"Synthetic site 6563, Stuttgart Region","connectors":4,"power_kw":150,"status":"available","latitude":48.61727,"longitude":8.84485},"geometry":{"type":"Point","coordinates":[8.84485,48.61727]}},{"type":"Feature","properties":{"id":"ev-de-06652","name":"Stuttgart Region Charging Asset 0402","operator":"Allego","region":"Stuttgart Region","state":"Baden-Wurttemberg","address":"Synthetic site 6652, Stuttgart Region","connectors":7,"power_kw":300,"status":"occupied","latitude":48.63555,"longitude":8.8737},"geometry":{"type":"Point","coordinates":[8.8737,48.63555]}},{"type":"Feature","properties":{"id":"ev-de-06742","name":"Stuttgart Region Charging Asset 0492","operator":"EnBW","region":"Stuttgart Region","state":"Baden-Wurttemberg","address":"Synthetic site 6742, Stuttgart Region","connectors":5,"power_kw":75,"status":"occupied","latitude":48.68683,"longitude":8.89501},"geometry":{"type":"Point","coordinates":[8.89501,48.68683]}},{"type":"Feature","properties":{"id":"ev-de-06832","name":"Stuttgart Region Charging Asset 0582","operator":"Allego","region":"Stuttgart Region","state":"Baden-Wurttemberg","address":"Synthetic site 6832, Stuttgart Region","connectors":3,"power_kw":11,"status":"occupied","latitude":48.73811,"longitude":8.94292},"geometry":{"type":"Point","coordinates":[8.94292,48.73811]}},{"type":"Feature","properties":{"id":"ev-de-06922","name":"Stuttgart Region Charging Asset 0672","operator":"EnBW","region":"Stuttgart Region","state":"Baden-Wurttemberg","address":"Synthetic site 6922, Stuttgart Region","connectors":8,"power_kw":120,"status":"occupied","latitude":48.76409,"longitude":8.99083},"geometry":{"type":"Point","coordinates":[8.99083,48.76409]}},{"type":"Feature","properties":{"id":"ev-de-07012","name":"Stuttgart Region Charging Asset 0762","operator":"Allego","region":"Stuttgart Region","state":"Baden-Wurttemberg","address":"Synthetic site 7012, Stuttgart Region","connectors":6,"power_kw":22,"status":"occupied","latitude":48.81537,"longitude":9.03874},"geometry":{"type":"Point","coordinates":[9.03874,48.81537]}},{"type":"Feature","properties":{"id":"ev-de-07102","name":"Stuttgart Region Charging Asset 0852","operator":"EnBW","region":"Stuttgart Region","state":"Baden-Wurttemberg","address":"Synthetic site 7102, Stuttgart Region","connectors":4,"power_kw":150,"status":"occupied","latitude":48.84135,"longitude":9.06005},"geometry":{"type":"Point","coordinates":[9.06005,48.84135]}},{"type":"Feature","properties":{"id":"ev-de-07192","name":"Stuttgart Region Charging Asset 0942","operator":"Allego","region":"Stuttgart Region","state":"Baden-Wurttemberg","address":"Synthetic site 7192, Stuttgart Region","connectors":2,"power_kw":50,"status":"occupied","latitude":48.89263,"longitude":9.10795},"geometry":{"type":"Point","coordinates":[9.10795,48.89263]}},{"type":"Feature","properties":{"id":"ev-de-07282","name":"Stuttgart Region Charging Asset 1032","operator":"EnBW","region":"Stuttgart Region","state":"Baden-Wurttemberg","address":"Synthetic site 7282, Stuttgart Region","connectors":7,"power_kw":300,"status":"occupied","latitude":48.94391,"longitude":9.15586},"geometry":{"type":"Point","coordinates":[9.15586,48.94391]}},{"type":"Feature","properties":{"id":"ev-de-07372","name":"Stuttgart Region Charging Asset 1122","operator":"Allego","region":"Stuttgart Region","state":"Baden-Wurttemberg","address":"Synthetic site 7372, Stuttgart Region","connectors":5,"power_kw":75,"status":"occupied","latitude":48.96989,"longitude":9.17717},"geometry":{"type":"Point","coordinates":[9.17717,48.96989]}},{"type":"Feature","properties":{"id":"ev-de-07461","name":"Stuttgart Region Charging Asset 1211","operator":"UrbanVolt","region":"Stuttgart Region","state":"Baden-Wurttemberg","address":"Synthetic site 7461, Stuttgart Region","connectors":8,"power_kw":120,"status":"available","latitude":49.01347,"longitude":9.20603},"geometry":{"type":"Point","coordinates":[9.20603,49.01347]}},{"type":"Feature","properties":{"id":"ev-de-07551","name":"Ruhr Area Charging Asset 0051","operator":"EnBW","region":"Ruhr Area","state":"North Rhine-Westphalia","address":"Synthetic site 7551, Ruhr Area","connectors":2,"power_kw":11,"status":"available","latitude":51.2076,"longitude":6.5582},"geometry":{"type":"Point","coordinates":[6.5582,51.2076]}},{"type":"Feature","properties":{"id":"ev-de-07641","name":"Ruhr Area Charging Asset 0141","operator":"Allego","region":"Ruhr Area","state":"North Rhine-Westphalia","address":"Synthetic site 7641, Ruhr Area","connectors":7,"power_kw":120,"status":"available","latitude":51.2403,"longitude":7.4452},"geometry":{"type":"Point","coordinates":[7.4452,51.2403]}},{"type":"Feature","properties":{"id":"ev-de-07731","name":"Ruhr Area Charging Asset 0231","operator":"EnBW","region":"Ruhr Area","state":"North Rhine-Westphalia","address":"Synthetic site 7731, Ruhr Area","connectors":5,"power_kw":22,"status":"available","latitude":51.2705,"longitude":7.2322},"geometry":{"type":"Point","coordinates":[7.2322,51.2705]}},{"type":"Feature","properties":{"id":"ev-de-07821","name":"Ruhr Area Charging Asset 0321","operator":"Allego","region":"Ruhr Area","state":"North Rhine-Westphalia","address":"Synthetic site 7821, Ruhr Area","connectors":3,"power_kw":150,"status":"available","latitude":51.326,"longitude":6.9926},"geometry":{"type":"Point","coordinates":[6.9926,51.326]}},{"type":"Feature","properties":{"id":"ev-de-07911","name":"Ruhr Area Charging Asset 0411","operator":"EnBW","region":"Ruhr Area","state":"North Rhine-Westphalia","address":"Synthetic site 7911, Ruhr Area","connectors":8,"power_kw":50,"status":"available","latitude":51.3815,"longitude":6.7796},"geometry":{"type":"Point","coordinates":[6.7796,51.3815]}},{"type":"Feature","properties":{"id":"ev-de-08001","name":"Ruhr Area Charging Asset 0501","operator":"Allego","region":"Ruhr Area","state":"North Rhine-Westphalia","address":"Synthetic site 8001, Ruhr Area","connectors":6,"power_kw":300,"status":"available","latitude":51.4117,"longitude":6.5666},"geometry":{"type":"Point","coordinates":[6.5666,51.4117]}},{"type":"Feature","properties":{"id":"ev-de-08091","name":"Ruhr Area Charging Asset 0591","operator":"EnBW","region":"Ruhr Area","state":"North Rhine-Westphalia","address":"Synthetic site 8091, Ruhr Area","connectors":4,"power_kw":75,"status":"available","latitude":51.4444,"longitude":7.4536},"geometry":{"type":"Point","coordinates":[7.4536,51.4444]}},{"type":"Feature","properties":{"id":"ev-de-08181","name":"Ruhr Area Charging Asset 0681","operator":"Allego","region":"Ruhr Area","state":"North Rhine-Westphalia","address":"Synthetic site 8181, Ruhr Area","connectors":2,"power_kw":11,"status":"available","latitude":51.4999,"longitude":7.214},"geometry":{"type":"Point","coordinates":[7.214,51.4999]}},{"type":"Feature","properties":{"id":"ev-de-08270","name":"Ruhr Area Charging Asset 0770","operator":"UrbanVolt","region":"Ruhr Area","state":"North Rhine-Westphalia","address":"Synthetic site 8270, Ruhr Area","connectors":5,"power_kw":22,"status":"maintenance","latitude":51.5224,"longitude":6.9804},"geometry":{"type":"Point","coordinates":[6.9804,51.5224]}},{"type":"Feature","properties":{"id":"ev-de-08360","name":"Ruhr Area Charging Asset 0860","operator":"Aral pulse","region":"Ruhr Area","state":"North Rhine-Westphalia","address":"Synthetic site 8360, Ruhr Area","connectors":3,"power_kw":150,"status":"maintenance","latitude":51.5779,"longitude":6.7674},"geometry":{"type":"Point","coordinates":[6.7674,51.5779]}},{"type":"Feature","properties":{"id":"ev-de-08450","name":"Ruhr Area Charging Asset 0950","operator":"UrbanVolt","region":"Ruhr Area","state":"North Rhine-Westphalia","address":"Synthetic site 8450, Ruhr Area","connectors":8,"power_kw":50,"status":"maintenance","latitude":51.6106,"longitude":7.6278},"geometry":{"type":"Point","coordinates":[7.6278,51.6106]}},{"type":"Feature","properties":{"id":"ev-de-08540","name":"Ruhr Area Charging Asset 1040","operator":"Aral pulse","region":"Ruhr Area","state":"North Rhine-Westphalia","address":"Synthetic site 8540, Ruhr Area","connectors":6,"power_kw":300,"status":"maintenance","latitude":51.6408,"longitude":7.4148},"geometry":{"type":"Point","coordinates":[7.4148,51.6408]}},{"type":"Feature","properties":{"id":"ev-de-08630","name":"Ruhr Area Charging Asset 1130","operator":"UrbanVolt","region":"Ruhr Area","state":"North Rhine-Westphalia","address":"Synthetic site 8630, Ruhr Area","connectors":4,"power_kw":75,"status":"maintenance","latitude":51.6963,"longitude":7.2018},"geometry":{"type":"Point","coordinates":[7.2018,51.6963]}},{"type":"Feature","properties":{"id":"ev-de-08720","name":"Ruhr Area Charging Asset 1220","operator":"Aral pulse","region":"Ruhr Area","state":"North Rhine-Westphalia","address":"Synthetic site 8720, Ruhr Area","connectors":2,"power_kw":11,"status":"maintenance","latitude":51.7265,"longitude":6.9888},"geometry":{"type":"Point","coordinates":[6.9888,51.7265]}},{"type":"Feature","properties":{"id":"ev-de-08810","name":"Dusseldorf-Lower Rhine Charging Asset 0060","operator":"Allego","region":"Dusseldorf-Lower Rhine","state":"North Rhine-Westphalia","address":"Synthetic site 8810, Dusseldorf-Lower Rhine","connectors":3,"power_kw":75,"status":"maintenance","latitude":51.0396,"longitude":6.5237},"geometry":{"type":"Point","coordinates":[6.5237,51.0396]}},{"type":"Feature","properties":{"id":"ev-de-08900","name":"Dusseldorf-Lower Rhine Charging Asset 0150","operator":"EnBW","region":"Dusseldorf-Lower Rhine","state":"North Rhine-Westphalia","address":"Synthetic site 8900, Dusseldorf-Lower Rhine","connectors":8,"power_kw":11,"status":"maintenance","latitude":51.06087,"longitude":6.61124},"geometry":{"type":"Point","coordinates":[6.61124,51.06087]}},{"type":"Feature","properties":{"id":"ev-de-08990","name":"Dusseldorf-Lower Rhine Charging Asset 0240","operator":"Allego","region":"Dusseldorf-Lower Rhine","state":"North Rhine-Westphalia","address":"Synthetic site 8990, Dusseldorf-Lower Rhine","connectors":6,"power_kw":120,"status":"maintenance","latitude":51.10743,"longitude":6.72539},"geometry":{"type":"Point","coordinates":[6.72539,51.10743]}},{"type":"Feature","properties":{"id":"ev-de-09079","name":"Dusseldorf-Lower Rhine Charging Asset 0329","operator":"UrbanVolt","region":"Dusseldorf-Lower Rhine","state":"North Rhine-Westphalia","address":"Synthetic site 9079, Dusseldorf-Lower Rhine","connectors":2,"power_kw":150,"status":"available","latitude":51.1463,"longitude":6.82307},"geometry":{"type":"Point","coordinates":[6.82307,51.1463]}},{"type":"Feature","properties":{"id":"ev-de-09169","name":"Dusseldorf-Lower Rhine Charging Asset 0419","operator":"Aral pulse","region":"Dusseldorf-Lower Rhine","state":"North Rhine-Westphalia","address":"Synthetic site 9169, Dusseldorf-Lower Rhine","connectors":7,"power_kw":50,"status":"available","latitude":51.16757,"longitude":6.91061},"geometry":{"type":"Point","coordinates":[6.91061,51.16757]}},{"type":"Feature","properties":{"id":"ev-de-09259","name":"Dusseldorf-Lower Rhine Charging Asset 0509","operator":"UrbanVolt","region":"Dusseldorf-Lower Rhine","state":"North Rhine-Westphalia","address":"Synthetic site 9259, Dusseldorf-Lower Rhine","connectors":5,"power_kw":300,"status":"available","latitude":51.23247,"longitude":6.27476},"geometry":{"type":"Point","coordinates":[6.27476,51.23247]}},{"type":"Feature","properties":{"id":"ev-de-09349","name":"Dusseldorf-Lower Rhine Charging Asset 0599","operator":"Aral pulse","region":"Dusseldorf-Lower Rhine","state":"North Rhine-Westphalia","address":"Synthetic site 9349, Dusseldorf-Lower Rhine","connectors":3,"power_kw":75,"status":"available","latitude":51.25373,"longitude":6.3889},"geometry":{"type":"Point","coordinates":[6.3889,51.25373]}},{"type":"Feature","properties":{"id":"ev-de-09439","name":"Dusseldorf-Lower Rhine Charging Asset 0689","operator":"UrbanVolt","region":"Dusseldorf-Lower Rhine","state":"North Rhine-Westphalia","address":"Synthetic site 9439, Dusseldorf-Lower Rhine","connectors":8,"power_kw":11,"status":"available","latitude":51.3003,"longitude":6.50304},"geometry":{"type":"Point","coordinates":[6.50304,51.3003]}},{"type":"Feature","properties":{"id":"ev-de-09529","name":"Dusseldorf-Lower Rhine Charging Asset 0779","operator":"Aral pulse","region":"Dusseldorf-Lower Rhine","state":"North Rhine-Westphalia","address":"Synthetic site 9529, Dusseldorf-Lower Rhine","connectors":6,"power_kw":120,"status":"available","latitude":51.34687,"longitude":6.59059},"geometry":{"type":"Point","coordinates":[6.59059,51.34687]}},{"type":"Feature","properties":{"id":"ev-de-09619","name":"Dusseldorf-Lower Rhine Charging Asset 0869","operator":"UrbanVolt","region":"Dusseldorf-Lower Rhine","state":"North Rhine-Westphalia","address":"Synthetic site 9619, Dusseldorf-Lower Rhine","connectors":4,"power_kw":22,"status":"available","latitude":51.36813,"longitude":6.70473},"geometry":{"type":"Point","coordinates":[6.70473,51.36813]}},{"type":"Feature","properties":{"id":"ev-de-09709","name":"Dusseldorf-Lower Rhine Charging Asset 0959","operator":"Aral pulse","region":"Dusseldorf-Lower Rhine","state":"North Rhine-Westphalia","address":"Synthetic site 9709, Dusseldorf-Lower Rhine","connectors":2,"power_kw":150,"status":"available","latitude":51.4147,"longitude":6.81887},"geometry":{"type":"Point","coordinates":[6.81887,51.4147]}},{"type":"Feature","properties":{"id":"ev-de-09799","name":"Dusseldorf-Lower Rhine Charging Asset 1049","operator":"UrbanVolt","region":"Dusseldorf-Lower Rhine","state":"North Rhine-Westphalia","address":"Synthetic site 9799, Dusseldorf-Lower Rhine","connectors":7,"power_kw":50,"status":"available","latitude":51.46127,"longitude":6.93301},"geometry":{"type":"Point","coordinates":[6.93301,51.46127]}},{"type":"Feature","properties":{"id":"ev-de-09888","name":"Dusseldorf-Lower Rhine Charging Asset 1138","operator":"EnBW","region":"Dusseldorf-Lower Rhine","state":"North Rhine-Westphalia","address":"Synthetic site 9888, Dusseldorf-Lower Rhine","connectors":3,"power_kw":75,"status":"available","latitude":51.49317,"longitude":6.2541},"geometry":{"type":"Point","coordinates":[6.2541,51.49317]}},{"type":"Feature","properties":{"id":"ev-de-09978","name":"Dusseldorf-Lower Rhine Charging Asset 1228","operator":"Allego","region":"Dusseldorf-Lower Rhine","state":"North Rhine-Westphalia","address":"Synthetic site 9978, Dusseldorf-Lower Rhine","connectors":8,"power_kw":11,"status":"available","latitude":51.53973,"longitude":6.36824},"geometry":{"type":"Point","coordinates":[6.36824,51.53973]}},{"type":"Feature","properties":{"id":"ev-de-10068","name":"Hannover Region Charging Asset 0068","operator":"UrbanVolt","region":"Hannover Region","state":"Lower Saxony","address":"Synthetic site 10068, Hannover Region","connectors":2,"power_kw":75,"status":"available","latitude":52.20137,"longitude":9.51532},"geometry":{"type":"Point","coordinates":[9.51532,52.20137]}},{"type":"Feature","properties":{"id":"ev-de-10158","name":"Hannover Region Charging Asset 0158","operator":"Aral pulse","region":"Hannover Region","state":"Lower Saxony","address":"Synthetic site 10158, Hannover Region","connectors":7,"power_kw":11,"status":"available","latitude":52.27556,"longitude":9.45942},"geometry":{"type":"Point","coordinates":[9.45942,52.27556]}},{"type":"Feature","properties":{"id":"ev-de-10248","name":"Hannover Region Charging Asset 0248","operator":"UrbanVolt","region":"Hannover Region","state":"Lower Saxony","address":"Synthetic site 10248, Hannover Region","connectors":5,"power_kw":120,"status":"available","latitude":52.30301,"longitude":10.02692},"geometry":{"type":"Point","coordinates":[10.02692,52.30301]}},{"type":"Feature","properties":{"id":"ev-de-10338","name":"Hannover Region Charging Asset 0338","operator":"Aral pulse","region":"Hannover Region","state":"Lower Saxony","address":"Synthetic site 10338, Hannover Region","connectors":3,"power_kw":22,"status":"available","latitude":52.3772,"longitude":9.97101},"geometry":{"type":"Point","coordinates":[9.97101,52.3772]}},{"type":"Feature","properties":{"id":"ev-de-10428","name":"Hannover Region Charging Asset 0428","operator":"UrbanVolt","region":"Hannover Region","state":"Lower Saxony","address":"Synthetic site 10428, Hannover Region","connectors":8,"power_kw":150,"status":"available","latitude":52.45139,"longitude":9.91511},"geometry":{"type":"Point","coordinates":[9.91511,52.45139]}},{"type":"Feature","properties":{"id":"ev-de-10518","name":"Hannover Region Charging Asset 0518","operator":"Aral pulse","region":"Hannover Region","state":"Lower Saxony","address":"Synthetic site 10518, Hannover Region","connectors":6,"power_kw":50,"status":"available","latitude":52.50027,"longitude":9.85921},"geometry":{"type":"Point","coordinates":[9.85921,52.50027]}},{"type":"Feature","properties":{"id":"ev-de-10608","name":"Hannover Region Charging Asset 0608","operator":"UrbanVolt","region":"Hannover Region","state":"Lower Saxony","address":"Synthetic site 10608, Hannover Region","connectors":4,"power_kw":300,"status":"available","latitude":52.57446,"longitude":9.7767},"geometry":{"type":"Point","coordinates":[9.7767,52.57446]}},{"type":"Feature","properties":{"id":"ev-de-10697","name":"Bremen-Oldenburg Charging Asset 0071","operator":"UrbanVolt","region":"Bremen-Oldenburg","state":"Bremen / Lower Saxony","address":"Synthetic site 10697, Bremen-Oldenburg","connectors":4,"power_kw":22,"status":"available","latitude":52.91082,"longitude":8.41171},"geometry":{"type":"Point","coordinates":[8.41171,52.91082]}},{"type":"Feature","properties":{"id":"ev-de-10787","name":"Bremen-Oldenburg Charging Asset 0161","operator":"Aral pulse","region":"Bremen-Oldenburg","state":"Bremen / Lower Saxony","address":"Synthetic site 10787, Bremen-Oldenburg","connectors":2,"power_kw":150,"status":"available","latitude":52.97289,"longitude":9.03689},"geometry":{"type":"Point","coordinates":[9.03689,52.97289]}},{"type":"Feature","properties":{"id":"ev-de-10877","name":"Bremen-Oldenburg Charging Asset 0251","operator":"UrbanVolt","region":"Bremen-Oldenburg","state":"Bremen / Lower Saxony","address":"Synthetic site 10877, Bremen-Oldenburg","connectors":7,"power_kw":50,"status":"available","latitude":53.03575,"longitude":8.81207},"geometry":{"type":"Point","coordinates":[8.81207,53.03575]}},{"type":"Feature","properties":{"id":"ev-de-10967","name":"Bremen-Oldenburg Charging Asset 0341","operator":"Aral pulse","region":"Bremen-Oldenburg","state":"Bremen / Lower Saxony","address":"Synthetic site 10967, Bremen-Oldenburg","connectors":5,"power_kw":300,"status":"available","latitude":53.12391,"longitude":8.56065},"geometry":{"type":"Point","coordinates":[8.56065,53.12391]}},{"type":"Feature","properties":{"id":"ev-de-11057","name":"Bremen-Oldenburg Charging Asset 0431","operator":"UrbanVolt","region":"Bremen-Oldenburg","state":"Bremen / Lower Saxony","address":"Synthetic site 11057, Bremen-Oldenburg","connectors":3,"power_kw":75,"status":"available","latitude":53.21207,"longitude":8.33584},"geometry":{"type":"Point","coordinates":[8.33584,53.21207]}},{"type":"Feature","properties":{"id":"ev-de-11147","name":"Bremen-Oldenburg Charging Asset 0521","operator":"Aral pulse","region":"Bremen-Oldenburg","state":"Bremen / Lower Saxony","address":"Synthetic site 11147, Bremen-Oldenburg","connectors":8,"power_kw":11,"status":"available","latitude":53.24885,"longitude":8.96102},"geometry":{"type":"Point","coordinates":[8.96102,53.24885]}},{"type":"Feature","properties":{"id":"ev-de-11237","name":"Bremen-Oldenburg Charging Asset 0611","operator":"UrbanVolt","region":"Bremen-Oldenburg","state":"Bremen / Lower Saxony","address":"Synthetic site 11237, Bremen-Oldenburg","connectors":6,"power_kw":120,"status":"available","latitude":53.33701,"longitude":8.7362},"geometry":{"type":"Point","coordinates":[8.7362,53.33701]}},{"type":"Feature","properties":{"id":"ev-de-11327","name":"Bremen-Oldenburg Charging Asset 0701","operator":"Aral pulse","region":"Bremen-Oldenburg","state":"Bremen / Lower Saxony","address":"Synthetic site 11327, Bremen-Oldenburg","connectors":4,"power_kw":22,"status":"available","latitude":53.39987,"longitude":8.48478},"geometry":{"type":"Point","coordinates":[8.48478,53.39987]}},{"type":"Feature","properties":{"id":"ev-de-11417","name":"Leipzig Region Charging Asset 0052","operator":"Ionity","region":"Leipzig Region","state":"Saxony","address":"Synthetic site 11417, Leipzig Region","connectors":5,"power_kw":120,"status":"occupied","latitude":51.09522,"longitude":12.44096},"geometry":{"type":"Point","coordinates":[12.44096,51.09522]}},{"type":"Feature","properties":{"id":"ev-de-11507","name":"Leipzig Region Charging Asset 0142","operator":"Stadtwerke Mobility","region":"Leipzig Region","state":"Saxony","address":"Synthetic site 11507, Leipzig Region","connectors":3,"power_kw":22,"status":"occupied","latitude":51.19335,"longitude":12.36086},"geometry":{"type":"Point","coordinates":[12.36086,51.19335]}},{"type":"Feature","properties":{"id":"ev-de-11596","name":"Leipzig Region Charging Asset 0231","operator":"E.ON Drive","region":"Leipzig Region","state":"Saxony","address":"Synthetic site 11596, Leipzig Region","connectors":6,"power_kw":50,"status":"available","latitude":51.25849,"longitude":12.25314},"geometry":{"type":"Point","coordinates":[12.25314,51.25849]}},{"type":"Feature","properties":{"id":"ev-de-11686","name":"Leipzig Region Charging Asset 0321","operator":"ChargeNow","region":"Leipzig Region","state":"Saxony","address":"Synthetic site 11686, Leipzig Region","connectors":4,"power_kw":300,"status":"available","latitude":51.35662,"longitude":12.14644},"geometry":{"type":"Point","coordinates":[12.14644,51.35662]}},{"type":"Feature","properties":{"id":"ev-de-11776","name":"Leipzig Region Charging Asset 0411","operator":"E.ON Drive","region":"Leipzig Region","state":"Saxony","address":"Synthetic site 11776, Leipzig Region","connectors":2,"power_kw":75,"status":"available","latitude":51.45476,"longitude":12.06634},"geometry":{"type":"Point","coordinates":[12.06634,51.45476]}},{"type":"Feature","properties":{"id":"ev-de-11866","name":"Leipzig Region Charging Asset 0501","operator":"ChargeNow","region":"Leipzig Region","state":"Saxony","address":"Synthetic site 11866, Leipzig Region","connectors":7,"power_kw":11,"status":"available","latitude":51.52759,"longitude":11.98625},"geometry":{"type":"Point","coordinates":[11.98625,51.52759]}},{"type":"Feature","properties":{"id":"ev-de-11956","name":"Dresden Region Charging Asset 0087","operator":"E.ON Drive","region":"Dresden Region","state":"Saxony","address":"Synthetic site 11956, Dresden Region","connectors":5,"power_kw":120,"status":"available","latitude":50.82043,"longitude":12.87738},"geometry":{"type":"Point","coordinates":[12.87738,50.82043]}},{"type":"Feature","properties":{"id":"ev-de-12046","name":"Dresden Region Charging Asset 0177","operator":"ChargeNow","region":"Dresden Region","state":"Saxony","address":"Synthetic site 12046, Dresden Region","connectors":3,"power_kw":22,"status":"available","latitude":50.89283,"longitude":13.0701},"geometry":{"type":"Point","coordinates":[13.0701,50.89283]}},{"type":"Feature","properties":{"id":"ev-de-12136","name":"Dresden Region Charging Asset 0267","operator":"E.ON Drive","region":"Dresden Region","state":"Saxony","address":"Synthetic site 12136, Dresden Region","connectors":8,"power_kw":150,"status":"available","latitude":50.96522,"longitude":13.23621},"geometry":{"type":"Point","coordinates":[13.23621,50.96522]}},{"type":"Feature","properties":{"id":"ev-de-12226","name":"Dresden Region Charging Asset 0357","operator":"ChargeNow","region":"Dresden Region","state":"Saxony","address":"Synthetic site 12226, Dresden Region","connectors":6,"power_kw":50,"status":"available","latitude":51.01232,"longitude":13.42892},"geometry":{"type":"Point","coordinates":[13.42892,51.01232]}},{"type":"Feature","properties":{"id":"ev-de-12316","name":"Dresden Region Charging Asset 0447","operator":"E.ON Drive","region":"Dresden Region","state":"Saxony","address":"Synthetic site 12316, Dresden Region","connectors":4,"power_kw":300,"status":"available","latitude":51.08472,"longitude":13.62164},"geometry":{"type":"Point","coordinates":[13.62164,51.08472]}},{"type":"Feature","properties":{"id":"ev-de-12405","name":"Dresden Region Charging Asset 0536","operator":"Ionity","region":"Dresden Region","state":"Saxony","address":"Synthetic site 12405, Dresden Region","connectors":7,"power_kw":11,"status":"available","latitude":51.14943,"longitude":13.7848},"geometry":{"type":"Point","coordinates":[13.7848,51.14943]}},{"type":"Feature","properties":{"id":"ev-de-12495","name":"Dresden Region Charging Asset 0626","operator":"Stadtwerke Mobility","region":"Dresden Region","state":"Saxony","address":"Synthetic site 12495, Dresden Region","connectors":5,"power_kw":120,"status":"available","latitude":51.19653,"longitude":13.95091},"geometry":{"type":"Point","coordinates":[13.95091,51.19653]}},{"type":"Feature","properties":{"id":"ev-de-12585","name":"Nuremberg Region Charging Asset 0046","operator":"ChargeNow","region":"Nuremberg Region","state":"Bavaria","address":"Synthetic site 12585, Nuremberg Region","connectors":5,"power_kw":150,"status":"available","latitude":49.14161,"longitude":10.95723},"geometry":{"type":"Point","coordinates":[10.95723,49.14161]}},{"type":"Feature","properties":{"id":"ev-de-12675","name":"Nuremberg Region Charging Asset 0136","operator":"E.ON Drive","region":"Nuremberg Region","state":"Bavaria","address":"Synthetic site 12675, Nuremberg Region","connectors":3,"power_kw":50,"status":"available","latitude":49.19843,"longitude":10.74605},"geometry":{"type":"Point","coordinates":[10.74605,49.19843]}},{"type":"Feature","properties":{"id":"ev-de-12765","name":"Nuremberg Region Charging Asset 0226","operator":"ChargeNow","region":"Nuremberg Region","state":"Bavaria","address":"Synthetic site 12765, Nuremberg Region","connectors":8,"power_kw":300,"status":"available","latitude":49.25648,"longitude":11.30827},"geometry":{"type":"Point","coordinates":[11.30827,49.25648]}},{"type":"Feature","properties":{"id":"ev-de-12855","name":"Nuremberg Region Charging Asset 0316","operator":"E.ON Drive","region":"Nuremberg Region","state":"Bavaria","address":"Synthetic site 12855, Nuremberg Region","connectors":6,"power_kw":75,"status":"available","latitude":49.3386,"longitude":11.09708},"geometry":{"type":"Point","coordinates":[11.09708,49.3386]}},{"type":"Feature","properties":{"id":"ev-de-12945","name":"Nuremberg Region Charging Asset 0406","operator":"ChargeNow","region":"Nuremberg Region","state":"Bavaria","address":"Synthetic site 12945, Nuremberg Region","connectors":4,"power_kw":11,"status":"available","latitude":49.39543,"longitude":10.8859},"geometry":{"type":"Point","coordinates":[10.8859,49.39543]}},{"type":"Feature","properties":{"id":"ev-de-13035","name":"Nuremberg Region Charging Asset 0496","operator":"E.ON Drive","region":"Nuremberg Region","state":"Bavaria","address":"Synthetic site 13035, Nuremberg Region","connectors":2,"power_kw":120,"status":"available","latitude":49.47755,"longitude":10.67472},"geometry":{"type":"Point","coordinates":[10.67472,49.47755]}},{"type":"Feature","properties":{"id":"ev-de-13125","name":"Nuremberg Region Charging Asset 0586","operator":"ChargeNow","region":"Nuremberg Region","state":"Bavaria","address":"Synthetic site 13125, Nuremberg Region","connectors":7,"power_kw":22,"status":"available","latitude":49.5103,"longitude":11.23694},"geometry":{"type":"Point","coordinates":[11.23694,49.5103]}},{"type":"Feature","properties":{"id":"ev-de-13214","name":"Nuremberg Region Charging Asset 0675","operator":"Stadtwerke Mobility","region":"Nuremberg Region","state":"Bavaria","address":"Synthetic site 13214, Nuremberg Region","connectors":3,"power_kw":50,"status":"occupied","latitude":49.58472,"longitude":11.00292},"geometry":{"type":"Point","coordinates":[11.00292,49.58472]}},{"type":"Feature","properties":{"id":"ev-de-13304","name":"Nuremberg Region Charging Asset 0765","operator":"Ionity","region":"Nuremberg Region","state":"Bavaria","address":"Synthetic site 13304, Nuremberg Region","connectors":8,"power_kw":300,"status":"occupied","latitude":49.66684,"longitude":10.79173},"geometry":{"type":"Point","coordinates":[10.79173,49.66684]}},{"type":"Feature","properties":{"id":"ev-de-13394","name":"Nuremberg Region Charging Asset 0855","operator":"Stadtwerke Mobility","region":"Nuremberg Region","state":"Bavaria","address":"Synthetic site 13394, Nuremberg Region","connectors":6,"power_kw":75,"status":"occupied","latitude":49.72489,"longitude":11.35395},"geometry":{"type":"Point","coordinates":[11.35395,49.72489]}},{"type":"Feature","properties":{"id":"ev-de-13484","name":"Karlsruhe Technology Region Charging Asset 0075","operator":"ChargeNow","region":"Karlsruhe Technology Region","state":"Baden-Wurttemberg","address":"Synthetic site 13484, Karlsruhe Technology Region","connectors":2,"power_kw":75,"status":"occupied","latitude":48.80398,"longitude":8.17402},"geometry":{"type":"Point","coordinates":[8.17402,48.80398]}},{"type":"Feature","properties":{"id":"ev-de-13574","name":"Karlsruhe Technology Region Charging Asset 0165","operator":"E.ON Drive","region":"Karlsruhe Technology Region","state":"Baden-Wurttemberg","address":"Synthetic site 13574, Karlsruhe Technology Region","connectors":7,"power_kw":11,"status":"occupied","latitude":48.85619,"longitude":8.63396},"geometry":{"type":"Point","coordinates":[8.63396,48.85619]}},{"type":"Feature","properties":{"id":"ev-de-13664","name":"Karlsruhe Technology Region Charging Asset 0255","operator":"ChargeNow","region":"Karlsruhe Technology Region","state":"Baden-Wurttemberg","address":"Synthetic site 13664, Karlsruhe Technology Region","connectors":5,"power_kw":120,"status":"occupied","latitude":48.90425,"longitude":8.39391},"geometry":{"type":"Point","coordinates":[8.39391,48.90425]}},{"type":"Feature","properties":{"id":"ev-de-13754","name":"Karlsruhe Technology Region Charging Asset 0345","operator":"E.ON Drive","region":"Karlsruhe Technology Region","state":"Baden-Wurttemberg","address":"Synthetic site 13754, Karlsruhe Technology Region","connectors":3,"power_kw":22,"status":"occupied","latitude":48.97762,"longitude":8.15385},"geometry":{"type":"Point","coordinates":[8.15385,48.97762]}},{"type":"Feature","properties":{"id":"ev-de-13844","name":"Karlsruhe Technology Region Charging Asset 0435","operator":"ChargeNow","region":"Karlsruhe Technology Region","state":"Baden-Wurttemberg","address":"Synthetic site 13844, Karlsruhe Technology Region","connectors":8,"power_kw":150,"status":"occupied","latitude":49.00452,"longitude":8.58719},"geometry":{"type":"Point","coordinates":[8.58719,49.00452]}},{"type":"Feature","properties":{"id":"ev-de-13934","name":"Karlsruhe Technology Region Charging Asset 0525","operator":"E.ON Drive","region":"Karlsruhe Technology Region","state":"Baden-Wurttemberg","address":"Synthetic site 13934, Karlsruhe Technology Region","connectors":6,"power_kw":50,"status":"occupied","latitude":49.07788,"longitude":8.34713},"geometry":{"type":"Point","coordinates":[8.34713,49.07788]}},{"type":"Feature","properties":{"id":"ev-de-14023","name":"Karlsruhe Technology Region Charging Asset 0614","operator":"Ionity","region":"Karlsruhe Technology Region","state":"Baden-Wurttemberg","address":"Synthetic site 14023, Karlsruhe Technology Region","connectors":2,"power_kw":75,"status":"available","latitude":49.14355,"longitude":8.08788},"geometry":{"type":"Point","coordinates":[8.08788,49.14355]}},{"type":"Feature","properties":{"id":"ev-de-14113","name":"Karlsruhe Technology Region Charging Asset 0704","operator":"Stadtwerke Mobility","region":"Karlsruhe Technology Region","state":"Baden-Wurttemberg","address":"Synthetic site 14113, Karlsruhe Technology Region","connectors":7,"power_kw":11,"status":"available","latitude":49.19575,"longitude":8.52122},"geometry":{"type":"Point","coordinates":[8.52122,49.19575]}},{"type":"Feature","properties":{"id":"ev-de-14203","name":"Karlsruhe Technology Region Charging Asset 0794","operator":"Ionity","region":"Karlsruhe Technology Region","state":"Baden-Wurttemberg","address":"Synthetic site 14203, Karlsruhe Technology Region","connectors":5,"power_kw":120,"status":"available","latitude":49.24382,"longitude":8.28116},"geometry":{"type":"Point","coordinates":[8.28116,49.24382]}},{"type":"Feature","properties":{"id":"ev-de-14293","name":"Rhine-Neckar Charging Asset 0009","operator":"Allego","region":"Rhine-Neckar","state":"Baden-Wurttemberg / Hesse","address":"Synthetic site 14293, Rhine-Neckar","connectors":3,"power_kw":22,"status":"available","latitude":49.25838,"longitude":8.317},"geometry":{"type":"Point","coordinates":[8.317,49.25838]}},{"type":"Feature","properties":{"id":"ev-de-14383","name":"Rhine-Neckar Charging Asset 0099","operator":"EnBW","region":"Rhine-Neckar","state":"Baden-Wurttemberg / Hesse","address":"Synthetic site 14383, Rhine-Neckar","connectors":8,"power_kw":150,"status":"available","latitude":49.30621,"longitude":8.36264},"geometry":{"type":"Point","coordinates":[8.36264,49.30621]}},{"type":"Feature","properties":{"id":"ev-de-14473","name":"Rhine-Neckar Charging Asset 0189","operator":"Allego","region":"Rhine-Neckar","state":"Baden-Wurttemberg / Hesse","address":"Synthetic site 14473, Rhine-Neckar","connectors":6,"power_kw":50,"status":"available","latitude":49.32874,"longitude":8.38168},"geometry":{"type":"Point","coordinates":[8.38168,49.32874]}},{"type":"Feature","properties":{"id":"ev-de-14563","name":"Rhine-Neckar Charging Asset 0279","operator":"EnBW","region":"Rhine-Neckar","state":"Baden-Wurttemberg / Hesse","address":"Synthetic site 14563, Rhine-Neckar","connectors":4,"power_kw":300,"status":"available","latitude":49.37658,"longitude":8.42731},"geometry":{"type":"Point","coordinates":[8.42731,49.37658]}},{"type":"Feature","properties":{"id":"ev-de-14653","name":"Rhine-Neckar Charging Asset 0369","operator":"Allego","region":"Rhine-Neckar","state":"Baden-Wurttemberg / Hesse","address":"Synthetic site 14653, Rhine-Neckar","connectors":2,"power_kw":75,"status":"available","latitude":49.39911,"longitude":8.47295},"geometry":{"type":"Point","coordinates":[8.47295,49.39911]}},{"type":"Feature","properties":{"id":"ev-de-14743","name":"Rhine-Neckar Charging Asset 0459","operator":"EnBW","region":"Rhine-Neckar","state":"Baden-Wurttemberg / Hesse","address":"Synthetic site 14743, Rhine-Neckar","connectors":7,"power_kw":11,"status":"available","latitude":49.44694,"longitude":8.51859},"geometry":{"type":"Point","coordinates":[8.51859,49.44694]}},{"type":"Feature","properties":{"id":"ev-de-14832","name":"Rhine-Neckar Charging Asset 0548","operator":"Aral pulse","region":"Rhine-Neckar","state":"Baden-Wurttemberg / Hesse","address":"Synthetic site 14832, Rhine-Neckar","connectors":3,"power_kw":22,"status":"maintenance","latitude":49.48707,"longitude":8.5197},"geometry":{"type":"Point","coordinates":[8.5197,49.48707]}},{"type":"Feature","properties":{"id":"ev-de-14922","name":"Rhine-Neckar Charging Asset 0638","operator":"UrbanVolt","region":"Rhine-Neckar","state":"Baden-Wurttemberg / Hesse","address":"Synthetic site 14922, Rhine-Neckar","connectors":8,"power_kw":150,"status":"maintenance","latitude":49.5349,"longitude":8.56534},"geometry":{"type":"Point","coordinates":[8.56534,49.5349]}},{"type":"Feature","properties":{"id":"ev-de-15012","name":"Rhine-Neckar Charging Asset 0728","operator":"Aral pulse","region":"Rhine-Neckar","state":"Baden-Wurttemberg / Hesse","address":"Synthetic site 15012, Rhine-Neckar","connectors":6,"power_kw":50,"status":"maintenance","latitude":49.55743,"longitude":8.61098},"geometry":{"type":"Point","coordinates":[8.61098,49.55743]}},{"type":"Feature","properties":{"id":"ev-de-15102","name":"Rhine-Neckar Charging Asset 0818","operator":"UrbanVolt","region":"Rhine-Neckar","state":"Baden-Wurttemberg / Hesse","address":"Synthetic site 15102, Rhine-Neckar","connectors":4,"power_kw":300,"status":"maintenance","latitude":49.60526,"longitude":8.63001},"geometry":{"type":"Point","coordinates":[8.63001,49.60526]}},{"type":"Feature","properties":{"id":"ev-de-15192","name":"Rhine-Neckar Charging Asset 0908","operator":"Aral pulse","region":"Rhine-Neckar","state":"Baden-Wurttemberg / Hesse","address":"Synthetic site 15192, Rhine-Neckar","connectors":2,"power_kw":75,"status":"maintenance","latitude":49.62779,"longitude":8.67565},"geometry":{"type":"Point","coordinates":[8.67565,49.62779]}},{"type":"Feature","properties":{"id":"ev-de-15282","name":"Rhine-Neckar Charging Asset 0998","operator":"UrbanVolt","region":"Rhine-Neckar","state":"Baden-Wurttemberg / Hesse","address":"Synthetic site 15282, Rhine-Neckar","connectors":7,"power_kw":11,"status":"maintenance","latitude":49.67562,"longitude":8.72129},"geometry":{"type":"Point","coordinates":[8.72129,49.67562]}},{"type":"Feature","properties":{"id":"ev-de-15372","name":"Rhine-Neckar Charging Asset 1088","operator":"Aral pulse","region":"Rhine-Neckar","state":"Baden-Wurttemberg / Hesse","address":"Synthetic site 15372, Rhine-Neckar","connectors":5,"power_kw":120,"status":"maintenance","latitude":49.72346,"longitude":8.76692},"geometry":{"type":"Point","coordinates":[8.76692,49.72346]}},{"type":"Feature","properties":{"id":"ev-de-15462","name":"Rhine-Neckar Charging Asset 1178","operator":"UrbanVolt","region":"Rhine-Neckar","state":"Baden-Wurttemberg / Hesse","address":"Synthetic site 15462, Rhine-Neckar","connectors":3,"power_kw":22,"status":"maintenance","latitude":49.74599,"longitude":8.78596},"geometry":{"type":"Point","coordinates":[8.78596,49.74599]}},{"type":"Feature","properties":{"id":"ev-de-15552","name":"Freiburg-South Baden Charging Asset 0018","operator":"EnBW","region":"Freiburg-South Baden","state":"Baden-Wurttemberg","address":"Synthetic site 15552, Freiburg-South Baden","connectors":4,"power_kw":120,"status":"maintenance","latitude":47.626,"longitude":7.91747},"geometry":{"type":"Point","coordinates":[7.91747,47.626]}},{"type":"Feature","properties":{"id":"ev-de-15641","name":"Freiburg-South Baden Charging Asset 0107","operator":"Aral pulse","region":"Freiburg-South Baden","state":"Baden-Wurttemberg","address":"Synthetic site 15641, Freiburg-South Baden","connectors":7,"power_kw":150,"status":"available","latitude":47.71037,"longitude":7.65315},"geometry":{"type":"Point","coordinates":[7.65315,47.71037]}},{"type":"Feature","properties":{"id":"ev-de-15731","name":"Freiburg-South Baden Charging Asset 0197","operator":"UrbanVolt","region":"Freiburg-South Baden","state":"Baden-Wurttemberg","address":"Synthetic site 15731, Freiburg-South Baden","connectors":5,"power_kw":50,"status":"available","latitude":47.77505,"longitude":8.31469},"geometry":{"type":"Point","coordinates":[8.31469,47.77505]}},{"type":"Feature","properties":{"id":"ev-de-15821","name":"Freiburg-South Baden Charging Asset 0287","operator":"Aral pulse","region":"Freiburg-South Baden","state":"Baden-Wurttemberg","address":"Synthetic site 15821, Freiburg-South Baden","connectors":3,"power_kw":300,"status":"available","latitude":47.84183,"longitude":8.07624},"geometry":{"type":"Point","coordinates":[8.07624,47.84183]}},{"type":"Feature","properties":{"id":"ev-de-15911","name":"Freiburg-South Baden Charging Asset 0377","operator":"UrbanVolt","region":"Freiburg-South Baden","state":"Baden-Wurttemberg","address":"Synthetic site 15911, Freiburg-South Baden","connectors":8,"power_kw":75,"status":"available","latitude":47.9339,"longitude":7.81118},"geometry":{"type":"Point","coordinates":[7.81118,47.9339]}},{"type":"Feature","properties":{"id":"ev-de-16001","name":"Freiburg-South Baden Charging Asset 0467","operator":"Aral pulse","region":"Freiburg-South Baden","state":"Baden-Wurttemberg","address":"Synthetic site 16001, Freiburg-South Baden","connectors":6,"power_kw":11,"status":"available","latitude":48.02597,"longitude":7.57273},"geometry":{"type":"Point","coordinates":[7.57273,48.02597]}},{"type":"Feature","properties":{"id":"ev-de-16091","name":"Freiburg-South Baden Charging Asset 0557","operator":"UrbanVolt","region":"Freiburg-South Baden","state":"Baden-Wurttemberg","address":"Synthetic site 16091, Freiburg-South Baden","connectors":4,"power_kw":120,"status":"available","latitude":48.06536,"longitude":8.23427},"geometry":{"type":"Point","coordinates":[8.23427,48.06536]}},{"type":"Feature","properties":{"id":"ev-de-16181","name":"Freiburg-South Baden Charging Asset 0647","operator":"Aral pulse","region":"Freiburg-South Baden","state":"Baden-Wurttemberg","address":"Synthetic site 16181, Freiburg-South Baden","connectors":2,"power_kw":22,"status":"available","latitude":48.15743,"longitude":7.96922},"geometry":{"type":"Point","coordinates":[7.96922,48.15743]}},{"type":"Feature","properties":{"id":"ev-de-16271","name":"Freiburg-South Baden Charging Asset 0737","operator":"UrbanVolt","region":"Freiburg-South Baden","state":"Baden-Wurttemberg","address":"Synthetic site 16271, Freiburg-South Baden","connectors":7,"power_kw":150,"status":"available","latitude":48.2242,"longitude":7.73076},"geometry":{"type":"Point","coordinates":[7.73076,48.2242]}},{"type":"Feature","properties":{"id":"ev-de-16361","name":"Saarland Region Charging Asset 0068","operator":"Ionity","region":"Saarland Region","state":"Saarland","address":"Synthetic site 16361, Saarland Region","connectors":2,"power_kw":75,"status":"occupied","latitude":49.14155,"longitude":6.98},"geometry":{"type":"Point","coordinates":[6.98,49.14155]}},{"type":"Feature","properties":{"id":"ev-de-16450","name":"Saarland Region Charging Asset 0157","operator":"ChargeNow","region":"Saarland Region","state":"Saarland","address":"Synthetic site 16450, Saarland Region","connectors":5,"power_kw":120,"status":"available","latitude":49.29375,"longitude":6.5924},"geometry":{"type":"Point","coordinates":[6.5924,49.29375]}},{"type":"Feature","properties":{"id":"ev-de-16540","name":"Saarland Region Charging Asset 0247","operator":"E.ON Drive","region":"Saarland Region","state":"Saarland","address":"Synthetic site 16540, Saarland Region","connectors":3,"power_kw":22,"status":"available","latitude":49.41615,"longitude":7.1128},"geometry":{"type":"Point","coordinates":[7.1128,49.41615]}},{"type":"Feature","properties":{"id":"ev-de-16630","name":"Saarland Region Charging Asset 0337","operator":"ChargeNow","region":"Saarland Region","state":"Saarland","address":"Synthetic site 16630, Saarland Region","connectors":8,"power_kw":150,"status":"available","latitude":49.55075,"longitude":6.7598},"geometry":{"type":"Point","coordinates":[6.7598,49.55075]}},{"type":"Feature","properties":{"id":"ev-de-16720","name":"Mainz-Wiesbaden Charging Asset 0031","operator":"ChargeNow","region":"Mainz-Wiesbaden","state":"Rhineland-Palatinate / Hesse","address":"Synthetic site 16720, Mainz-Wiesbaden","connectors":2,"power_kw":22,"status":"available","latitude":49.85231,"longitude":8.47139},"geometry":{"type":"Point","coordinates":[8.47139,49.85231]}},{"type":"Feature","properties":{"id":"ev-de-16810","name":"Mainz-Wiesbaden Charging Asset 0121","operator":"E.ON Drive","region":"Mainz-Wiesbaden","state":"Rhineland-Palatinate / Hesse","address":"Synthetic site 16810, Mainz-Wiesbaden","connectors":7,"power_kw":150,"status":"available","latitude":49.92888,"longitude":8.21369},"geometry":{"type":"Point","coordinates":[8.21369,49.92888]}},{"type":"Feature","properties":{"id":"ev-de-16900","name":"Mainz-Wiesbaden Charging Asset 0211","operator":"ChargeNow","region":"Mainz-Wiesbaden","state":"Rhineland-Palatinate / Hesse","address":"Synthetic site 16900, Mainz-Wiesbaden","connectors":5,"power_kw":50,"status":"available","latitude":50.00544,"longitude":7.95598},"geometry":{"type":"Point","coordinates":[7.95598,50.00544]}},{"type":"Feature","properties":{"id":"ev-de-16990","name":"Mainz-Wiesbaden Charging Asset 0301","operator":"E.ON Drive","region":"Mainz-Wiesbaden","state":"Rhineland-Palatinate / Hesse","address":"Synthetic site 16990, Mainz-Wiesbaden","connectors":3,"power_kw":300,"status":"available","latitude":50.03449,"longitude":8.42168},"geometry":{"type":"Point","coordinates":[8.42168,50.03449]}},{"type":"Feature","properties":{"id":"ev-de-17080","name":"Mainz-Wiesbaden Charging Asset 0391","operator":"ChargeNow","region":"Mainz-Wiesbaden","state":"Rhineland-Palatinate / Hesse","address":"Synthetic site 17080, Mainz-Wiesbaden","connectors":8,"power_kw":75,"status":"available","latitude":50.11106,"longitude":8.16397},"geometry":{"type":"Point","coordinates":[8.16397,50.11106]}},{"type":"Feature","properties":{"id":"ev-de-17170","name":"Mainz-Wiesbaden Charging Asset 0481","operator":"E.ON Drive","region":"Mainz-Wiesbaden","state":"Rhineland-Palatinate / Hesse","address":"Synthetic site 17170, Mainz-Wiesbaden","connectors":6,"power_kw":11,"status":"available","latitude":50.16232,"longitude":7.90626},"geometry":{"type":"Point","coordinates":[7.90626,50.16232]}},{"type":"Feature","properties":{"id":"ev-de-17260","name":"Mainz-Wiesbaden Charging Asset 0571","operator":"ChargeNow","region":"Mainz-Wiesbaden","state":"Rhineland-Palatinate / Hesse","address":"Synthetic site 17260, Mainz-Wiesbaden","connectors":4,"power_kw":120,"status":"available","latitude":50.21667,"longitude":8.37196},"geometry":{"type":"Point","coordinates":[8.37196,50.21667]}},{"type":"Feature","properties":{"id":"ev-de-17349","name":"Muensterland Charging Asset 0058","operator":"ChargeNow","region":"Muensterland","state":"North Rhine-Westphalia","address":"Synthetic site 17349, Muensterland","connectors":7,"power_kw":150,"status":"available","latitude":51.78761,"longitude":7.75056},"geometry":{"type":"Point","coordinates":[7.75056,51.78761]}},{"type":"Feature","properties":{"id":"ev-de-17439","name":"Muensterland Charging Asset 0148","operator":"E.ON Drive","region":"Muensterland","state":"North Rhine-Westphalia","address":"Synthetic site 17439, Muensterland","connectors":5,"power_kw":50,"status":"available","latitude":51.85205,"longitude":8.12598},"geometry":{"type":"Point","coordinates":[8.12598,51.85205]}},{"type":"Feature","properties":{"id":"ev-de-17529","name":"Muensterland Charging Asset 0238","operator":"ChargeNow","region":"Muensterland","state":"North Rhine-Westphalia","address":"Synthetic site 17529, Muensterland","connectors":3,"power_kw":300,"status":"available","latitude":51.91847,"longitude":7.5014},"geometry":{"type":"Point","coordinates":[7.5014,51.91847]}},{"type":"Feature","properties":{"id":"ev-de-17619","name":"Muensterland Charging Asset 0328","operator":"E.ON Drive","region":"Muensterland","state":"North Rhine-Westphalia","address":"Synthetic site 17619, Muensterland","connectors":8,"power_kw":75,"status":"available","latitude":51.98292,"longitude":7.87682},"geometry":{"type":"Point","coordinates":[7.87682,51.98292]}},{"type":"Feature","properties":{"id":"ev-de-17709","name":"Muensterland Charging Asset 0418","operator":"ChargeNow","region":"Muensterland","state":"North Rhine-Westphalia","address":"Synthetic site 17709, Muensterland","connectors":6,"power_kw":11,"status":"available","latitude":52.04736,"longitude":8.22564},"geometry":{"type":"Point","coordinates":[8.22564,52.04736]}},{"type":"Feature","properties":{"id":"ev-de-17799","name":"Muensterland Charging Asset 0508","operator":"E.ON Drive","region":"Muensterland","state":"North Rhine-Westphalia","address":"Synthetic site 17799, Muensterland","connectors":4,"power_kw":120,"status":"available","latitude":52.11378,"longitude":7.60106},"geometry":{"type":"Point","coordinates":[7.60106,52.11378]}},{"type":"Feature","properties":{"id":"ev-de-17889","name":"Muensterland Charging Asset 0598","operator":"ChargeNow","region":"Muensterland","state":"North Rhine-Westphalia","address":"Synthetic site 17889, Muensterland","connectors":2,"power_kw":22,"status":"available","latitude":52.17823,"longitude":7.97648},"geometry":{"type":"Point","coordinates":[7.97648,52.17823]}},{"type":"Feature","properties":{"id":"ev-de-17979","name":"Muensterland Charging Asset 0688","operator":"E.ON Drive","region":"Muensterland","state":"North Rhine-Westphalia","address":"Synthetic site 17979, Muensterland","connectors":7,"power_kw":150,"status":"available","latitude":52.24465,"longitude":7.35191},"geometry":{"type":"Point","coordinates":[7.35191,52.24465]}},{"type":"Feature","properties":{"id":"ev-de-18069","name":"Muensterland Charging Asset 0778","operator":"ChargeNow","region":"Muensterland","state":"North Rhine-Westphalia","address":"Synthetic site 18069, Muensterland","connectors":5,"power_kw":50,"status":"available","latitude":52.30909,"longitude":7.70073},"geometry":{"type":"Point","coordinates":[7.70073,52.30909]}},{"type":"Feature","properties":{"id":"ev-de-18158","name":"Ostwestfalen-Lippe Charging Asset 0031","operator":"Ionity","region":"Ostwestfalen-Lippe","state":"North Rhine-Westphalia","address":"Synthetic site 18158, Ostwestfalen-Lippe","connectors":5,"power_kw":120,"status":"occupied","latitude":51.70533,"longitude":9.02003},"geometry":{"type":"Point","coordinates":[9.02003,51.70533]}},{"type":"Feature","properties":{"id":"ev-de-18248","name":"Ostwestfalen-Lippe Charging Asset 0121","operator":"Stadtwerke Mobility","region":"Ostwestfalen-Lippe","state":"North Rhine-Westphalia","address":"Synthetic site 18248, Ostwestfalen-Lippe","connectors":3,"power_kw":22,"status":"occupied","latitude":51.77175,"longitude":9.19846},"geometry":{"type":"Point","coordinates":[9.19846,51.77175]}},{"type":"Feature","properties":{"id":"ev-de-18338","name":"Ostwestfalen-Lippe Charging Asset 0211","operator":"Ionity","region":"Ostwestfalen-Lippe","state":"North Rhine-Westphalia","address":"Synthetic site 18338, Ostwestfalen-Lippe","connectors":8,"power_kw":150,"status":"occupied","latitude":51.86643,"longitude":8.17689},"geometry":{"type":"Point","coordinates":[8.17689,51.86643]}},{"type":"Feature","properties":{"id":"ev-de-18428","name":"Ostwestfalen-Lippe Charging Asset 0301","operator":"Stadtwerke Mobility","region":"Ostwestfalen-Lippe","state":"North Rhine-Westphalia","address":"Synthetic site 18428, Ostwestfalen-Lippe","connectors":6,"power_kw":50,"status":"occupied","latitude":51.90756,"longitude":8.32871},"geometry":{"type":"Point","coordinates":[8.32871,51.90756]}},{"type":"Feature","properties":{"id":"ev-de-18518","name":"Ostwestfalen-Lippe Charging Asset 0391","operator":"Ionity","region":"Ostwestfalen-Lippe","state":"North Rhine-Westphalia","address":"Synthetic site 18518, Ostwestfalen-Lippe","connectors":4,"power_kw":300,"status":"occupied","latitude":51.97398,"longitude":8.50714},"geometry":{"type":"Point","coordinates":[8.50714,51.97398]}},{"type":"Feature","properties":{"id":"ev-de-18608","name":"Ostwestfalen-Lippe Charging Asset 0481","operator":"Stadtwerke Mobility","region":"Ostwestfalen-Lippe","state":"North Rhine-Westphalia","address":"Synthetic site 18608, Ostwestfalen-Lippe","connectors":2,"power_kw":75,"status":"occupied","latitude":52.0151,"longitude":8.68557},"geometry":{"type":"Point","coordinates":[8.68557,52.0151]}},{"type":"Feature","properties":{"id":"ev-de-18698","name":"Ostwestfalen-Lippe Charging Asset 0571","operator":"Ionity","region":"Ostwestfalen-Lippe","state":"North Rhine-Westphalia","address":"Synthetic site 18698, Ostwestfalen-Lippe","connectors":7,"power_kw":11,"status":"occupied","latitude":52.08152,"longitude":8.8374},"geometry":{"type":"Point","coordinates":[8.8374,52.08152]}},{"type":"Feature","properties":{"id":"ev-de-18788","name":"Ostwestfalen-Lippe Charging Asset 0661","operator":"Stadtwerke Mobility","region":"Ostwestfalen-Lippe","state":"North Rhine-Westphalia","address":"Synthetic site 18788, Ostwestfalen-Lippe","connectors":5,"power_kw":120,"status":"occupied","latitude":52.14794,"longitude":9.01583},"geometry":{"type":"Point","coordinates":[9.01583,52.14794]}},{"type":"Feature","properties":{"id":"ev-de-18878","name":"Ostwestfalen-Lippe Charging Asset 0751","operator":"Ionity","region":"Ostwestfalen-Lippe","state":"North Rhine-Westphalia","address":"Synthetic site 18878, Ostwestfalen-Lippe","connectors":3,"power_kw":22,"status":"occupied","latitude":52.18907,"longitude":9.19426},"geometry":{"type":"Point","coordinates":[9.19426,52.18907]}},{"type":"Feature","properties":{"id":"ev-de-18967","name":"Ostwestfalen-Lippe Charging Asset 0840","operator":"ChargeNow","region":"Ostwestfalen-Lippe","state":"North Rhine-Westphalia","address":"Synthetic site 18967, Ostwestfalen-Lippe","connectors":6,"power_kw":50,"status":"available","latitude":52.24779,"longitude":9.34551},"geometry":{"type":"Point","coordinates":[9.34551,52.24779]}},{"type":"Feature","properties":{"id":"ev-de-19057","name":"Ostwestfalen-Lippe Charging Asset 0930","operator":"E.ON Drive","region":"Ostwestfalen-Lippe","state":"North Rhine-Westphalia","address":"Synthetic site 19057, Ostwestfalen-Lippe","connectors":4,"power_kw":300,"status":"available","latitude":52.34247,"longitude":8.29734},"geometry":{"type":"Point","coordinates":[8.29734,52.34247]}},{"type":"Feature","properties":{"id":"ev-de-19147","name":"North Hesse Charging Asset 0072","operator":"E.ON Drive","region":"North Hesse","state":"Hesse","address":"Synthetic site 19147, North Hesse","connectors":6,"power_kw":120,"status":"occupied","latitude":50.98792,"longitude":9.25773},"geometry":{"type":"Point","coordinates":[9.25773,50.98792]}},{"type":"Feature","properties":{"id":"ev-de-19237","name":"North Hesse Charging Asset 0162","operator":"ChargeNow","region":"North Hesse","state":"Hesse","address":"Synthetic site 19237, North Hesse","connectors":4,"power_kw":22,"status":"occupied","latitude":51.13405,"longitude":9.26473},"geometry":{"type":"Point","coordinates":[9.26473,51.13405]}},{"type":"Feature","properties":{"id":"ev-de-19327","name":"North Hesse Charging Asset 0252","operator":"E.ON Drive","region":"North Hesse","state":"Hesse","address":"Synthetic site 19327, North Hesse","connectors":2,"power_kw":150,"status":"occupied","latitude":51.30549,"longitude":9.27173},"geometry":{"type":"Point","coordinates":[9.27173,51.30549]}},{"type":"Feature","properties":{"id":"ev-de-19417","name":"North Hesse Charging Asset 0342","operator":"ChargeNow","region":"North Hesse","state":"Hesse","address":"Synthetic site 19417, North Hesse","connectors":7,"power_kw":50,"status":"occupied","latitude":51.47693,"longitude":9.25213},"geometry":{"type":"Point","coordinates":[9.25213,51.47693]}},{"type":"Feature","properties":{"id":"ev-de-19507","name":"Thuringia Central Charging Asset 0058","operator":"Ionity","region":"Thuringia Central","state":"Thuringia","address":"Synthetic site 19507, Thuringia Central","connectors":2,"power_kw":11,"status":"maintenance","latitude":50.6117,"longitude":11.71499},"geometry":{"type":"Point","coordinates":[11.71499,50.6117]}},{"type":"Feature","properties":{"id":"ev-de-19597","name":"Thuringia Central Charging Asset 0148","operator":"Stadtwerke Mobility","region":"Thuringia Central","state":"Thuringia","address":"Synthetic site 19597, Thuringia Central","connectors":7,"power_kw":120,"status":"maintenance","latitude":50.79493,"longitude":10.55647},"geometry":{"type":"Point","coordinates":[10.55647,50.79493]}},{"type":"Feature","properties":{"id":"ev-de-19687","name":"Thuringia Central Charging Asset 0238","operator":"Ionity","region":"Thuringia Central","state":"Thuringia","address":"Synthetic site 19687, Thuringia Central","connectors":5,"power_kw":22,"status":"maintenance","latitude":50.90953,"longitude":10.69795},"geometry":{"type":"Point","coordinates":[10.69795,50.90953]}},{"type":"Feature","properties":{"id":"ev-de-19776","name":"Thuringia Central Charging Asset 0327","operator":"ChargeNow","region":"Thuringia Central","state":"Thuringia","address":"Synthetic site 19776, Thuringia Central","connectors":8,"power_kw":50,"status":"available","latitude":51.04173,"longitude":10.79601},"geometry":{"type":"Point","coordinates":[10.79601,51.04173]}},{"type":"Feature","properties":{"id":"ev-de-19866","name":"Magdeburg-Borde Charging Asset 0007","operator":"Stadtwerke Mobility","region":"Magdeburg-Borde","state":"Saxony-Anhalt","address":"Synthetic site 19866, Magdeburg-Borde","connectors":2,"power_kw":150,"status":"available","latitude":51.8888,"longitude":11.12875},"geometry":{"type":"Point","coordinates":[11.12875,51.8888]}},{"type":"Feature","properties":{"id":"ev-de-19956","name":"Magdeburg-Borde Charging Asset 0097","operator":"Ionity","region":"Magdeburg-Borde","state":"Saxony-Anhalt","address":"Synthetic site 19956, Magdeburg-Borde","connectors":7,"power_kw":50,"status":"available","latitude":52.0534,"longitude":11.65241},"geometry":{"type":"Point","coordinates":[11.65241,52.0534]}},{"type":"Feature","properties":{"id":"ev-de-20046","name":"Magdeburg-Borde Charging Asset 0187","operator":"Stadtwerke Mobility","region":"Magdeburg-Borde","state":"Saxony-Anhalt","address":"Synthetic site 20046, Magdeburg-Borde","connectors":5,"power_kw":300,"status":"available","latitude":52.2433,"longitude":12.14948},"geometry":{"type":"Point","coordinates":[12.14948,52.2433]}},{"type":"Feature","properties":{"id":"ev-de-20136","name":"Rostock Coast Charging Asset 0012","operator":"Aral pulse","region":"Rostock Coast","state":"Mecklenburg-Vorpommern","address":"Synthetic site 20136, Rostock Coast","connectors":4,"power_kw":150,"status":"available","latitude":53.77397,"longitude":12.2811},"geometry":{"type":"Point","coordinates":[12.2811,53.77397]}},{"type":"Feature","properties":{"id":"ev-de-20226","name":"Rostock Coast Charging Asset 0102","operator":"UrbanVolt","region":"Rostock Coast","state":"Mecklenburg-Vorpommern","address":"Synthetic site 20226, Rostock Coast","connectors":2,"power_kw":50,"status":"available","latitude":54.0566,"longitude":11.7381},"geometry":{"type":"Point","coordinates":[11.7381,54.0566]}},{"type":"Feature","properties":{"id":"ev-de-20316","name":"Rostock Coast Charging Asset 0192","operator":"Aral pulse","region":"Rostock Coast","state":"Mecklenburg-Vorpommern","address":"Synthetic site 20316, Rostock Coast","connectors":7,"power_kw":300,"status":"available","latitude":54.25938,"longitude":12.2951},"geometry":{"type":"Point","coordinates":[12.2951,54.25938]}},{"type":"Feature","properties":{"id":"ev-de-20406","name":"Kiel-Schleswig Charging Asset 0074","operator":"UrbanVolt","region":"Kiel-Schleswig","state":"Schleswig-Holstein","address":"Synthetic site 20406, Kiel-Schleswig","connectors":7,"power_kw":11,"status":"maintenance","latitude":54.04634,"longitude":10.37216},"geometry":{"type":"Point","coordinates":[10.37216,54.04634]}},{"type":"Feature","properties":{"id":"ev-de-20496","name":"Kiel-Schleswig Charging Asset 0164","operator":"Aral pulse","region":"Kiel-Schleswig","state":"Schleswig-Holstein","address":"Synthetic site 20496, Kiel-Schleswig","connectors":5,"power_kw":120,"status":"maintenance","latitude":54.22095,"longitude":9.61249},"geometry":{"type":"Point","coordinates":[9.61249,54.22095]}},{"type":"Feature","properties":{"id":"ev-de-20585","name":"Kiel-Schleswig Charging Asset 0253","operator":"Allego","region":"Kiel-Schleswig","state":"Schleswig-Holstein","address":"Synthetic site 20585, Kiel-Schleswig","connectors":8,"power_kw":150,"status":"available","latitude":54.34668,"longitude":9.96163},"geometry":{"type":"Point","coordinates":[9.96163,54.34668]}},{"type":"Feature","properties":{"id":"ev-de-20675","name":"Kiel-Schleswig Charging Asset 0343","operator":"EnBW","region":"Kiel-Schleswig","state":"Schleswig-Holstein","address":"Synthetic site 20675, Kiel-Schleswig","connectors":6,"power_kw":50,"status":"available","latitude":54.45481,"longitude":10.32536},"geometry":{"type":"Point","coordinates":[10.32536,54.45481]}},{"type":"Feature","properties":{"id":"ev-de-20765","name":"Kiel-Schleswig Charging Asset 0433","operator":"Allego","region":"Kiel-Schleswig","state":"Schleswig-Holstein","address":"Synthetic site 20765, Kiel-Schleswig","connectors":4,"power_kw":300,"status":"available","latitude":54.62941,"longitude":9.5657},"geometry":{"type":"Point","coordinates":[9.5657,54.62941]}},{"type":"Feature","properties":{"id":"ev-de-20855","name":"West Mecklenburg Charging Asset 0087","operator":"Allego","region":"West Mecklenburg","state":"Mecklenburg-Vorpommern","address":"Synthetic site 20855, West Mecklenburg","connectors":7,"power_kw":300,"status":"available","latitude":53.57008,"longitude":10.76471},"geometry":{"type":"Point","coordinates":[10.76471,53.57008]}},{"type":"Feature","properties":{"id":"ev-de-20945","name":"Potsdam-Havelland Charging Asset 0031","operator":"UrbanVolt","region":"Potsdam-Havelland","state":"Brandenburg","address":"Synthetic site 20945, Potsdam-Havelland","connectors":6,"power_kw":150,"status":"available","latitude":52.23941,"longitude":12.77686},"geometry":{"type":"Point","coordinates":[12.77686,52.23941]}},{"type":"Feature","properties":{"id":"ev-de-21035","name":"Potsdam-Havelland Charging Asset 0121","operator":"Aral pulse","region":"Potsdam-Havelland","state":"Brandenburg","address":"Synthetic site 21035, Potsdam-Havelland","connectors":4,"power_kw":50,"status":"available","latitude":52.37789,"longitude":12.72299},"geometry":{"type":"Point","coordinates":[12.72299,52.37789]}},{"type":"Feature","properties":{"id":"ev-de-21125","name":"Potsdam-Havelland Charging Asset 0211","operator":"UrbanVolt","region":"Potsdam-Havelland","state":"Brandenburg","address":"Synthetic site 21125, Potsdam-Havelland","connectors":2,"power_kw":300,"status":"available","latitude":52.51636,"longitude":12.66912},"geometry":{"type":"Point","coordinates":[12.66912,52.51636]}},{"type":"Feature","properties":{"id":"ev-de-21215","name":"Potsdam-Havelland Charging Asset 0301","operator":"Aral pulse","region":"Potsdam-Havelland","state":"Brandenburg","address":"Synthetic site 21215, Potsdam-Havelland","connectors":7,"power_kw":75,"status":"available","latitude":52.62953,"longitude":12.58865},"geometry":{"type":"Point","coordinates":[12.58865,52.62953]}},{"type":"Feature","properties":{"id":"ev-de-21305","name":"Augsburg-Swabia Charging Asset 0079","operator":"UrbanVolt","region":"Augsburg-Swabia","state":"Bavaria","address":"Synthetic site 21305, Augsburg-Swabia","connectors":8,"power_kw":300,"status":"occupied","latitude":48.05205,"longitude":10.5522},"geometry":{"type":"Point","coordinates":[10.5522,48.05205]}},{"type":"Feature","properties":{"id":"ev-de-21394","name":"Augsburg-Swabia Charging Asset 0168","operator":"EnBW","region":"Augsburg-Swabia","state":"Bavaria","address":"Synthetic site 21394, Augsburg-Swabia","connectors":4,"power_kw":11,"status":"available","latitude":48.13607,"longitude":10.898},"geometry":{"type":"Point","coordinates":[10.898,48.13607]}},{"type":"Feature","properties":{"id":"ev-de-21484","name":"Augsburg-Swabia Charging Asset 0258","operator":"Allego","region":"Augsburg-Swabia","state":"Bavaria","address":"Synthetic site 21484, Augsburg-Swabia","connectors":2,"power_kw":120,"status":"available","latitude":48.22976,"longitude":10.645},"geometry":{"type":"Point","coordinates":[10.645,48.22976]}},{"type":"Feature","properties":{"id":"ev-de-21574","name":"Augsburg-Swabia Charging Asset 0348","operator":"EnBW","region":"Augsburg-Swabia","state":"Bavaria","address":"Synthetic site 21574, Augsburg-Swabia","connectors":7,"power_kw":22,"status":"available","latitude":48.32148,"longitude":11.042},"geometry":{"type":"Point","coordinates":[11.042,48.32148]}},{"type":"Feature","properties":{"id":"ev-de-21664","name":"Augsburg-Swabia Charging Asset 0438","operator":"Allego","region":"Augsburg-Swabia","state":"Bavaria","address":"Synthetic site 21664, Augsburg-Swabia","connectors":5,"power_kw":150,"status":"available","latitude":48.41517,"longitude":10.7624},"geometry":{"type":"Point","coordinates":[10.7624,48.41517]}},{"type":"Feature","properties":{"id":"ev-de-21754","name":"Augsburg-Swabia Charging Asset 0528","operator":"EnBW","region":"Augsburg-Swabia","state":"Bavaria","address":"Synthetic site 21754, Augsburg-Swabia","connectors":3,"power_kw":50,"status":"available","latitude":48.53416,"longitude":10.5094},"geometry":{"type":"Point","coordinates":[10.5094,48.53416]}},{"type":"Feature","properties":{"id":"ev-de-21844","name":"Regensburg-Upper Palatinate Charging Asset 0083","operator":"ChargeNow","region":"Regensburg-Upper Palatinate","state":"Bavaria","address":"Synthetic site 21844, Regensburg-Upper Palatinate","connectors":5,"power_kw":11,"status":"available","latitude":48.88563,"longitude":11.91137},"geometry":{"type":"Point","coordinates":[11.91137,48.88563]}},{"type":"Feature","properties":{"id":"ev-de-21934","name":"Regensburg-Upper Palatinate Charging Asset 0173","operator":"E.ON Drive","region":"Regensburg-Upper Palatinate","state":"Bavaria","address":"Synthetic site 21934, Regensburg-Upper Palatinate","connectors":3,"power_kw":120,"status":"available","latitude":48.97611,"longitude":12.33375},"geometry":{"type":"Point","coordinates":[12.33375,48.97611]}},{"type":"Feature","properties":{"id":"ev-de-22024","name":"Regensburg-Upper Palatinate Charging Asset 0263","operator":"ChargeNow","region":"Regensburg-Upper Palatinate","state":"Bavaria","address":"Synthetic site 22024, Regensburg-Upper Palatinate","connectors":8,"power_kw":22,"status":"available","latitude":49.12719,"longitude":11.82954},"geometry":{"type":"Point","coordinates":[11.82954,49.12719]}},{"type":"Feature","properties":{"id":"ev-de-22114","name":"Regensburg-Upper Palatinate Charging Asset 0353","operator":"E.ON Drive","region":"Regensburg-Upper Palatinate","state":"Bavaria","address":"Synthetic site 22114, Regensburg-Upper Palatinate","connectors":6,"power_kw":150,"status":"available","latitude":49.21767,"longitude":12.25192},"geometry":{"type":"Point","coordinates":[12.25192,49.21767]}},{"type":"Feature","properties":{"id":"ev-de-22203","name":"Wuerzburg-Franconia Charging Asset 0025","operator":"Aral pulse","region":"Wuerzburg-Franconia","state":"Bavaria","address":"Synthetic site 22203, Wuerzburg-Franconia","connectors":5,"power_kw":150,"status":"available","latitude":49.56178,"longitude":10.25796},"geometry":{"type":"Point","coordinates":[10.25796,49.56178]}},{"type":"Feature","properties":{"id":"ev-de-22293","name":"Wuerzburg-Franconia Charging Asset 0115","operator":"UrbanVolt","region":"Wuerzburg-Franconia","state":"Bavaria","address":"Synthetic site 22293, Wuerzburg-Franconia","connectors":3,"power_kw":50,"status":"available","latitude":49.70109,"longitude":9.78067},"geometry":{"type":"Point","coordinates":[9.78067,49.70109]}},{"type":"Feature","properties":{"id":"ev-de-22383","name":"Wuerzburg-Franconia Charging Asset 0205","operator":"Aral pulse","region":"Wuerzburg-Franconia","state":"Bavaria","address":"Synthetic site 22383, Wuerzburg-Franconia","connectors":8,"power_kw":300,"status":"available","latitude":49.78275,"longitude":10.17998},"geometry":{"type":"Point","coordinates":[10.17998,49.78275]}},{"type":"Feature","properties":{"id":"ev-de-22473","name":"Wuerzburg-Franconia Charging Asset 0295","operator":"UrbanVolt","region":"Wuerzburg-Franconia","state":"Bavaria","address":"Synthetic site 22473, Wuerzburg-Franconia","connectors":6,"power_kw":75,"status":"available","latitude":49.92206,"longitude":9.72928},"geometry":{"type":"Point","coordinates":[9.72928,49.92206]}},{"type":"Feature","properties":{"id":"ev-de-22563","name":"Wuerzburg-Franconia Charging Asset 0385","operator":"Aral pulse","region":"Wuerzburg-Franconia","state":"Bavaria","address":"Synthetic site 22563, Wuerzburg-Franconia","connectors":4,"power_kw":11,"status":"available","latitude":50.02902,"longitude":10.12859},"geometry":{"type":"Point","coordinates":[10.12859,50.02902]}},{"type":"Feature","properties":{"id":"ev-de-22653","name":"Trier-Mosel Charging Asset 0052","operator":"Stadtwerke Mobility","region":"Trier-Mosel","state":"Rhineland-Palatinate","address":"Synthetic site 22653, Trier-Mosel","connectors":6,"power_kw":150,"status":"maintenance","latitude":49.5761,"longitude":7.07774},"geometry":{"type":"Point","coordinates":[7.07774,49.5761]}},{"type":"Feature","properties":{"id":"ev-de-22743","name":"Trier-Mosel Charging Asset 0142","operator":"Ionity","region":"Trier-Mosel","state":"Rhineland-Palatinate","address":"Synthetic site 22743, Trier-Mosel","connectors":4,"power_kw":50,"status":"maintenance","latitude":49.836,"longitude":7.08474},"geometry":{"type":"Point","coordinates":[7.08474,49.836]}},{"type":"Feature","properties":{"id":"ev-de-22833","name":"Lausitz-Cottbus Charging Asset 0024","operator":"Stadtwerke Mobility","region":"Lausitz-Cottbus","state":"Brandenburg / Saxony","address":"Synthetic site 22833, Lausitz-Cottbus","connectors":4,"power_kw":75,"status":"available","latitude":51.3254,"longitude":14.20252},"geometry":{"type":"Point","coordinates":[14.20252,51.3254]}},{"type":"Feature","properties":{"id":"ev-de-22923","name":"Lausitz-Cottbus Charging Asset 0114","operator":"Ionity","region":"Lausitz-Cottbus","state":"Brandenburg / Saxony","address":"Synthetic site 22923, Lausitz-Cottbus","connectors":2,"power_kw":11,"status":"available","latitude":51.62697,"longitude":14.44762},"geometry":{"type":"Point","coordinates":[14.44762,51.62697]}}],"description":"Representative fixture for frontend development."}
